ZIP,BLDGNO1,STREET1,STSUFX1,BLDGNO2,STREET2,STSUFX2,COUNTY,CITY,STATUS1,STATUS2,STATUS3,BLOCK,LOT,STATUS3 BLOCK,Unnamed: 0
10301,6,ARLO,RD,,,,64,STATEN ISLAND,MULTIPLE DWELLING A,GARDEN COMPLEX,,595.0,15.0,,
10301,7,ARLO,RD,,,,64,STATEN ISLAND,MULTIPLE DWELLING A,GARDEN COMPLEX,,595.0,15.0,,
10301,8,ARLO,RD,,,,64,STATEN ISLAND,MULTIPLE DWELLING A,GARDEN COMPLEX,,595.0,15.0,,
10301,9,ARLO,RD,,,,64,STATEN ISLAND,MULTIPLE DWELLING A,GARDEN COMPLEX,,595.0,15.0,,
10301,10,ARLO,RD,,,,64,STATEN ISLAND,MULTIPLE DWELLING A,GARDEN COMPLEX,,595.0,15.0,,
10301,11,ARLO,RD,,,,64,STATEN ISLAND,MULTIPLE DWELLING A,GARDEN COMPLEX,,595.0,15.0,,
10301,12,ARLO,RD,,,,64,STATEN ISLAND,MULTIPLE DWELLING A,GARDEN COMPLEX,,595.0,15.0,,
10301,13,ARLO,RD,,,,64,STATEN ISLAND,MULTIPLE DWELLING A,GARDEN COMPLEX,,595.0,15.0,,
10301,14,ARLO,RD,,,,64,STATEN ISLAND,MULTIPLE DWELLING A,GARDEN COMPLEX,,595.0,15.0,,
10301,7,ARLO,RD,,,,64,STATEN ISLAND,MULTIPLE DWELLING A,GARDEN COMPLEX,,593.0,590.0,,
10301,14,ARLO,RD,,,,64,STATEN ISLAND,MULTIPLE DWELLING A,GARDEN COMPLEX,,595.0,15.0,,
10301,15,ARLO,RD,,,,64,STATEN ISLAND,MULTIPLE DWELLING A,GARDEN COMPLEX,,593.0,590.0,,
10301,19,ARLO,RD,,,,64,STATEN ISLAND,MULTIPLE DWELLING A,GARDEN COMPLEX,,593.0,590.0,,
10301,22,ARLO,RD,,,,64,STATEN ISLAND,MULTIPLE DWELLING A,GARDEN COMPLEX,,595.0,15.0,,
10301,23,ARLO,RD,,,,64,STATEN ISLAND,MULTIPLE DWELLING A,GARDEN COMPLEX,,593.0,590.0,,
10301,26,ARLO,RD,,,,64,STATEN ISLAND,MULTIPLE DWELLING A,GARDEN COMPLEX,,595.0,15.0,,
10301,27,ARLO,RD,,,,64,STATEN ISLAND,MULTIPLE DWELLING A,GARDEN COMPLEX,,593.0,590.0,,
10301,28,ARLO,RD,,,,64,STATEN ISLAND,MULTIPLE DWELLING A,GARDEN COMPLEX,,595.0,15.0,,
10301,29,ARLO,RD,,,,64,STATEN ISLAND,MULTIPLE DWELLING A,GARDEN COMPLEX,,593.0,590.0,,
10301,30,ARLO,RD,,,,64,STATEN ISLAND,MULTIPLE DWELLING A,GARDEN COMPLEX,,595.0,15.0,,
10301,31,ARLO,RD,,,,64,STATEN ISLAND,MULTIPLE DWELLING A,GARDEN COMPLEX,,593.0,590.0,,
10301,33,ARLO,RD,,,,64,STATEN ISLAND,MULTIPLE DWELLING A,GARDEN COMPLEX,,593.0,590.0,,
10301,34,ARLO,RD,,,,64,STATEN ISLAND,MULTIPLE DWELLING A,GARDEN COMPLEX,,595.0,15.0,,
10301,35,ARLO,RD,,,,64,STATEN ISLAND,MULTIPLE DWELLING A,GARDEN COMPLEX,,593.0,590.0,,
10301,36,ARLO,RD,,,,64,STATEN ISLAND,MULTIPLE DWELLING A,GARDEN COMPLEX,,595.0,15.0,,
10301,37,ARLO,RD,,,,64,STATEN ISLAND,MULTIPLE DWELLING A,GARDEN COMPLEX,,593.0,590.0,,
10301,38,ARLO,RD,,,,64,STATEN ISLAND,MULTIPLE DWELLING A,GARDEN COMPLEX,,595.0,15.0,,
10301,41,ARLO,RD,,,,64,STATEN ISLAND,MULTIPLE DWELLING A,GARDEN COMPLEX,,593.0,590.0,,
10301,42,ARLO,RD,,,,64,STATEN ISLAND,MULTIPLE DWELLING A,GARDEN COMPLEX,,595.0,15.0,,
10301,49,ARLO,RD,,,,64,STATEN ISLAND,MULTIPLE DWELLING A,GARDEN COMPLEX,,593.0,590.0,,
10301,50,ARLO,RD,,,,64,STATEN ISLAND,MULTIPLE DWELLING A,GARDEN COMPLEX,,595.0,15.0,,
10301,53,ARLO,RD,,,,64,STATEN ISLAND,MULTIPLE DWELLING A,GARDEN COMPLEX,,593.0,590.0,,
10301,54,ARLO,RD,,,,64,STATEN ISLAND,MULTIPLE DWELLING A,GARDEN COMPLEX,,595.0,15.0,,
10301,55,ARLO,RD,,,,64,STATEN ISLAND,MULTIPLE DWELLING A,GARDEN COMPLEX,,593.0,590.0,,
10301,56,ARLO,RD,,,,64,STATEN ISLAND,MULTIPLE DWELLING A,GARDEN COMPLEX,,595.0,15.0,,
10301,57,ARLO,RD,,,,64,STATEN ISLAND,MULTIPLE DWELLING A,GARDEN COMPLEX,,593.0,590.0,,
10301,58,ARLO,RD,,,,64,STATEN ISLAND,MULTIPLE DWELLING A,GARDEN COMPLEX,,595.0,15.0,,
10301,59,ARLO,RD,,,,64,STATEN ISLAND,MULTIPLE DWELLING A,GARDEN COMPLEX,,593.0,590.0,,
10301,60,ARLO,RD,,,,64,STATEN ISLAND,MULTIPLE DWELLING A,GARDEN COMPLEX,,595.0,15.0,,
10301,61,ARLO,RD,,,,64,STATEN ISLAND,MULTIPLE DWELLING A,GARDEN COMPLEX,,593.0,590.0,,
10301,62,ARLO,RD,,,,64,STATEN ISLAND,MULTIPLE DWELLING A,GARDEN COMPLEX,,595.0,15.0,,
10301,63,ARLO,RD,,,,64,STATEN ISLAND,MULTIPLE DWELLING A,GARDEN COMPLEX,,593.0,590.0,,
10301,64,ARLO,RD,,,,64,STATEN ISLAND,MULTIPLE DWELLING A,GARDEN COMPLEX,,595.0,15.0,,
10301,68,ARLO,RD,,,,64,STATEN ISLAND,MULTIPLE DWELLING A,,,595.0,15.0,,
10301,69,ARLO,RD,,,,64,STATEN ISLAND,MULTIPLE DWELLING A,GARDEN COMPLEX,,593.0,590.0,,
10301,73,ARLO,RD,,,,64,STATEN ISLAND,MULTIPLE DWELLING A,GARDEN COMPLEX,,593.0,590.0,,
10301,74,ARLO,RD,,,,64,STATEN ISLAND,MULTIPLE DWELLING A,GARDEN COMPLEX,,595.0,15.0,,
10301,80,ARLO,RD,,,,64,STATEN ISLAND,MULTIPLE DWELLING A,GARDEN COMPLEX,,595.0,15.0,,
10301,81,ARLO,RD,,,,64,STATEN ISLAND,MULTIPLE DWELLING A,GARDEN COMPLEX,,593.0,590.0,,
10301,82,ARLO,RD,,,,64,STATEN ISLAND,MULTIPLE DWELLING A,GARDEN COMPLEX,,595.0,15.0,,
10301,84,ARLO,RD,,,,64,STATEN ISLAND,MULTIPLE DWELLING A,GARDEN COMPLEX,,595.0,15.0,,
10301,85,ARLO,RD,,,,64,STATEN ISLAND,MULTIPLE DWELLING A,GARDEN COMPLEX,,593.0,590.0,,
10301,86,ARLO,RD,,,,64,STATEN ISLAND,MULTIPLE DWELLING A,GARDEN COMPLEX,,595.0,15.0,,
10301,88,ARLO,RD,,,,64,STATEN ISLAND,MULTIPLE DWELLING A,GARDEN COMPLEX,,595.0,15.0,,
10301,89,ARLO,RD,,,,64,STATEN ISLAND,MULTIPLE DWELLING A,GARDEN COMPLEX,,593.0,590.0,,
10301,91,ARLO,RD,,,,64,STATEN ISLAND,MULTIPLE DWELLING A,GARDEN COMPLEX,,593.0,590.0,,
10301,93,ARLO,RD,,,,64,STATEN ISLAND,MULTIPLE DWELLING A,GARDEN COMPLEX,,593.0,590.0,,
10301,94,ARLO,RD,,,,64,STATEN ISLAND,MULTIPLE DWELLING A,GARDEN COMPLEX,,595.0,15.0,,
10301,95,ARLO,RD,,,,64,STATEN ISLAND,MULTIPLE DWELLING A,GARDEN COMPLEX,,593.0,590.0,,
10301,97,ARLO,RD,,,,64,STATEN ISLAND,MULTIPLE DWELLING A,GARDEN COMPLEX,,593.0,590.0,,
10301,99,ARLO,RD,,,,64,STATEN ISLAND,MULTIPLE DWELLING A,GARDEN COMPLEX,,593.0,590.0,,
10301,101,ARLO,RD,,,,64,STATEN ISLAND,MULTIPLE DWELLING A,GARDEN COMPLEX,,593.0,590.0,,
10301,107,ARLO,RD,,,,64,STATEN ISLAND,MULTIPLE DWELLING A,GARDEN COMPLEX,,593.0,590.0,,
10301,110,ARLO,RD,,,,64,STATEN ISLAND,MULTIPLE DWELLING A,GARDEN COMPLEX,,595.0,15.0,,
10301,111,ARLO,RD,,,,64,STATEN ISLAND,MULTIPLE DWELLING A,GARDEN COMPLEX,,593.0,590.0,,
10301,115,ARLO,RD,,,,64,STATEN ISLAND,MULTIPLE DWELLING A,GARDEN COMPLEX,,593.0,590.0,,
10301,121,ARLO,RD,,,,64,STATEN ISLAND,MULTIPLE DWELLING A,GARDEN COMPLEX,,593.0,590.0,,
10301,123,ARLO,RD,,,,64,STATEN ISLAND,MULTIPLE DWELLING A,GARDEN COMPLEX,,593.0,590.0,,
10301,127,ARLO,RD,,,,64,STATEN ISLAND,MULTIPLE DWELLING A,GARDEN COMPLEX,,593.0,590.0,,
10301,128,ARLO,RD,,,,64,STATEN ISLAND,MULTIPLE DWELLING A,GARDEN COMPLEX,,595.0,15.0,,
10301,130,ARLO,RD,,,,64,STATEN ISLAND,MULTIPLE DWELLING A,GARDEN COMPLEX,,595.0,15.0,,
10301,131,ARLO,RD,,,,64,STATEN ISLAND,MULTIPLE DWELLING A,GARDEN COMPLEX,,593.0,590.0,,
10301,132,ARLO,RD,,,,64,STATEN ISLAND,MULTIPLE DWELLING A,GARDEN COMPLEX,,595.0,15.0,,
10301,136,ARLO,RD,,,,64,STATEN ISLAND,MULTIPLE DWELLING A,GARDEN COMPLEX,,595.0,15.0,,
10301,137,ARLO,RD,,,,64,STATEN ISLAND,MULTIPLE DWELLING A,GARDEN COMPLEX,,593.0,590.0,,
10301,141,ARLO,RD,,,,64,STATEN ISLAND,MULTIPLE DWELLING A,GARDEN COMPLEX,,593.0,590.0,,
10301,29,AVON,PL,,,,64,STATEN ISLAND,MULTIPLE DWELLING A,,,574.0,1.0,,
10301,37,AVON,PL,,,,64,STATEN ISLAND,MULTIPLE DWELLING A,,,574.0,62.0,,
10301,45,AVON,PL,,,,64,STATEN ISLAND,MULTIPLE DWELLING A,,,574.0,58.0,,
10301,100,BELMONT,PL,,,,64,STATEN ISLAND,MULTIPLE DWELLING A,,,20.0,8.0,,
10301,167,CARROLL,PL,,,,64,STATEN ISLAND,MULTIPLE DWELLING A,GARDEN COMPLEX,,14.0,1.0,,
10301,172,CASTLETON,AVE,351.0,WOODSTOCK,AVE,64,STATEN ISLAND,MULTIPLE DWELLING A,,,114.0,14.0,,
10301,173,CASTLETON,AVE,351.0,WOODSTOCK,AVE,64,STATEN ISLAND,MULTIPLE DWELLING A,,,114.0,14.0,,
10301,174,CASTLETON,AVE,351.0,WOODSTOCK,AVE,64,STATEN ISLAND,MULTIPLE DWELLING A,,,114.0,14.0,,
10301,175,CASTLETON,AVE,351.0,WOODSTOCK,AVE,64,STATEN ISLAND,MULTIPLE DWELLING A,,,114.0,14.0,,
10301,176,CASTLETON,AVE,351.0,WOODSTOCK,AVE,64,STATEN ISLAND,MULTIPLE DWELLING A,,,114.0,14.0,,
10301,177,CASTLETON,AVE,351.0,WOODSTOCK,AVE,64,STATEN ISLAND,MULTIPLE DWELLING A,,,114.0,14.0,,
10301,178,CASTLETON,AVE,351.0,WOODSTOCK,AVE,64,STATEN ISLAND,MULTIPLE DWELLING A,,,114.0,14.0,,
10301,179,CASTLETON,AVE,351.0,WOODSTOCK,AVE,64,STATEN ISLAND,MULTIPLE DWELLING A,,,114.0,14.0,,
10301,180,CASTLETON,AVE,351.0,WOODSTOCK,AVE,64,STATEN ISLAND,MULTIPLE DWELLING A,,,114.0,14.0,,
10301,181,CASTLETON,AVE,351.0,WOODSTOCK,AVE,64,STATEN ISLAND,MULTIPLE DWELLING A,,,114.0,14.0,,
10301,182,CASTLETON,AVE,351.0,WOODSTOCK,AVE,64,STATEN ISLAND,MULTIPLE DWELLING A,,,114.0,14.0,,
10301,390,CASTLETON,AVE,10.0,HAVENWOOD,RD,64,STATEN ISLAND,MULTIPLE DWELLING A,,,128.0,60.0,,
10301,558,CASTLETON,AVE,,,,64,STATEN ISLAND,MULTIPLE DWELLING A,,,132.0,397.0,,
10301,559,CASTLETON,AVE,,,,64,STATEN ISLAND,MULTIPLE DWELLING A,,,132.0,397.0,,
10301,560,CASTLETON,AVE,,,,64,STATEN ISLAND,MULTIPLE DWELLING A,,,132.0,397.0,,
10301,561,CASTLETON,AVE,,,,64,STATEN ISLAND,MULTIPLE DWELLING A,,,132.0,397.0,,
10301,562,CASTLETON,AVE,,,,64,STATEN ISLAND,MULTIPLE DWELLING A,,,132.0,397.0,,
10301,563,CASTLETON,AVE,,,,64,STATEN ISLAND,MULTIPLE DWELLING A,,,132.0,397.0,,
10301,564,CASTLETON,AVE,,,,64,STATEN ISLAND,MULTIPLE DWELLING A,,,132.0,397.0,,
10301,565,CASTLETON,AVE,,,,64,STATEN ISLAND,MULTIPLE DWELLING A,,,132.0,397.0,,
10301,566,CASTLETON,AVE,,,,64,STATEN ISLAND,MULTIPLE DWELLING A,,,132.0,397.0,,
10301,567,CASTLETON,AVE,,,,64,STATEN ISLAND,MULTIPLE DWELLING A,,,132.0,397.0,,
10301,568,CASTLETON,AVE,,,,64,STATEN ISLAND,MULTIPLE DWELLING A,,,132.0,397.0,,
10301,574,CASTLETON,AVE,,,,64,STATEN ISLAND,MULTIPLE DWELLING A,,,132.0,397.0,,
10301,575,CASTLETON,AVE,,,,64,STATEN ISLAND,MULTIPLE DWELLING A,,,132.0,397.0,,
10301,576,CASTLETON,AVE,,,,64,STATEN ISLAND,MULTIPLE DWELLING A,,,132.0,397.0,,
10301,577,CASTLETON,AVE,,,,64,STATEN ISLAND,MULTIPLE DWELLING A,,,132.0,397.0,,
10301,578,CASTLETON,AVE,,,,64,STATEN ISLAND,MULTIPLE DWELLING A,,,132.0,397.0,,
10301,608,CASTLETON,AVE,,,,64,STATEN ISLAND,MULTIPLE DWELLING A,,,132.0,367.0,,
10301,609,CASTLETON,AVE,,,,64,STATEN ISLAND,MULTIPLE DWELLING A,,,132.0,367.0,,
10301,610,CASTLETON,AVE,,,,64,STATEN ISLAND,MULTIPLE DWELLING A,,,132.0,367.0,,
10301,611,CASTLETON,AVE,,,,64,STATEN ISLAND,MULTIPLE DWELLING A,,,132.0,367.0,,
10301,612,CASTLETON,AVE,,,,64,STATEN ISLAND,MULTIPLE DWELLING A,,,132.0,367.0,,
10301,613,CASTLETON,AVE,,,,64,STATEN ISLAND,MULTIPLE DWELLING A,,,132.0,367.0,,
10301,614,CASTLETON,AVE,,,,64,STATEN ISLAND,MULTIPLE DWELLING A,,,132.0,367.0,,
10301,615,CASTLETON,AVE,,,,64,STATEN ISLAND,MULTIPLE DWELLING A,,,132.0,367.0,,
10301,616,CASTLETON,AVE,,,,64,STATEN ISLAND,MULTIPLE DWELLING A,,,132.0,367.0,,
10301,617,CASTLETON,AVE,,,,64,STATEN ISLAND,MULTIPLE DWELLING A,,,132.0,367.0,,
10301,618,CASTLETON,AVE,,,,64,STATEN ISLAND,MULTIPLE DWELLING A,,,132.0,367.0,,
10301,622,CASTLETON,AVE,,,,64,STATEN ISLAND,MULTIPLE DWELLING A,,,132.0,367.0,,
10301,623,CASTLETON,AVE,,,,64,STATEN ISLAND,MULTIPLE DWELLING A,,,132.0,367.0,,
10301,624,CASTLETON,AVE,,,,64,STATEN ISLAND,MULTIPLE DWELLING A,,,132.0,367.0,,
10301,625,CASTLETON,AVE,,,,64,STATEN ISLAND,MULTIPLE DWELLING A,,,132.0,367.0,,
10301,626,CASTLETON,AVE,,,,64,STATEN ISLAND,MULTIPLE DWELLING A,,,132.0,367.0,,
10301,627,CASTLETON,AVE,,,,64,STATEN ISLAND,MULTIPLE DWELLING A,,,132.0,367.0,,
10301,628,CASTLETON,AVE,,,,64,STATEN ISLAND,MULTIPLE DWELLING A,,,132.0,367.0,,
10301,15,CENTRAL,AVE,,,,64,STATEN ISLAND,MULTIPLE DWELLING A,,,5.0,71.0,,
10301,33,CENTRAL,AVE,,,,64,STATEN ISLAND,MULTIPLE DWELLING A,,,5.0,57.0,,
10301,71,CENTRAL,AVE,,,,64,STATEN ISLAND,MULTIPLE DWELLING B,,,5.0,39.0,,
10301,30,DANIEL LOW,TER,,,,64,STATEN ISLAND,MULTIPLE DWELLING A,,,28.0,77.0,,
10301,101,DANIEL LOW,TER,,,,64,STATEN ISLAND,MULTIPLE DWELLING A,,,20.0,8.0,,
10301,151,DANIEL LOW,TER,,,,64,STATEN ISLAND,MULTIPLE DWELLING B,,,18.0,90.0,,
10301,157,DANIEL LOW,TER,,,,64,STATEN ISLAND,MULTIPLE DWELLING A,,,18.0,86.0,,
10301,327,FILLMORE,ST,,,,64,STATEN ISLAND,MULTIPLE DWELLING B,,,70.0,56.0,,
10301,86,GLENWOOD,AVE,,,,64,STATEN ISLAND,MULTIPLE DWELLING A,,,602.0,12.0,,
10301,54,GRANT,ST,,,,64,STATEN ISLAND,MULTIPLE DWELLING A,GARDEN COMPLEX,,506.0,103.0,,
10301,55,GRANT,ST,,,,64,STATEN ISLAND,MULTIPLE DWELLING A,GARDEN COMPLEX,,506.0,103.0,,
10301,56,GRANT,ST,,,,64,STATEN ISLAND,MULTIPLE DWELLING A,GARDEN COMPLEX,,506.0,103.0,,
10301,57,GRANT,ST,,,,64,STATEN ISLAND,MULTIPLE DWELLING A,GARDEN COMPLEX,,506.0,103.0,,
10301,58,GRANT,ST,,,,64,STATEN ISLAND,MULTIPLE DWELLING A,GARDEN COMPLEX,,506.0,103.0,,
10301,59,GRANT,ST,,,,64,STATEN ISLAND,MULTIPLE DWELLING A,GARDEN COMPLEX,,506.0,103.0,,
10301,60,GRANT,ST,,,,64,STATEN ISLAND,MULTIPLE DWELLING A,GARDEN COMPLEX,,506.0,103.0,,
10301,61,GRANT,ST,,,,64,STATEN ISLAND,MULTIPLE DWELLING A,GARDEN COMPLEX,,506.0,103.0,,
10301,62,GRANT,ST,,,,64,STATEN ISLAND,MULTIPLE DWELLING A,GARDEN COMPLEX,,506.0,103.0,,
10301,60,HAMILTON,AVE,,,,64,STATEN ISLAND,MULTIPLE DWELLING A,,,11.0,20.0,,
10301,201,HAMILTON,AVE,,,,64,STATEN ISLAND,MULTIPLE DWELLING A,,,22.0,70.0,,
10301,202,HAMILTON,AVE,,,,64,STATEN ISLAND,MULTIPLE DWELLING A,,,22.0,70.0,,
10301,203,HAMILTON,AVE,,,,64,STATEN ISLAND,MULTIPLE DWELLING A,,,22.0,70.0,,
10301,217,HAMILTON,AVE,,,,64,STATEN ISLAND,MULTIPLE DWELLING A,,,22.0,70.0,,
10301,218,HAMILTON,AVE,,,,64,STATEN ISLAND,MULTIPLE DWELLING A,,,22.0,70.0,,
10301,219,HAMILTON,AVE,,,,64,STATEN ISLAND,MULTIPLE DWELLING A,,,22.0,70.0,,
10301,150,HENDRICKS,AVE,,,,64,STATEN ISLAND,MULTIPLE DWELLING A,,,44.0,15.0,,
10301,434,HOWARD,AVE,,,,64,STATEN ISLAND,MULTIPLE DWELLING A,GARDEN COMPLEX,,593.0,590.0,,
10301,440,HOWARD,AVE,,,,64,STATEN ISLAND,MULTIPLE DWELLING A,GARDEN COMPLEX,,593.0,590.0,,
10301,460,HOWARD,AVE,,,,64,STATEN ISLAND,MULTIPLE DWELLING A,GARDEN COMPLEX,,595.0,15.0,,
10301,464,HOWARD,AVE,,,,64,STATEN ISLAND,MULTIPLE DWELLING A,GARDEN COMPLEX,,595.0,15.0,,
10301,468,HOWARD,AVE,,,,64,STATEN ISLAND,MULTIPLE DWELLING A,GARDEN COMPLEX,,595.0,15.0,,
10301,472,HOWARD,AVE,,,,64,STATEN ISLAND,MULTIPLE DWELLING A,GARDEN COMPLEX,,595.0,15.0,,
10301,476,HOWARD,AVE,,,,64,STATEN ISLAND,MULTIPLE DWELLING A,GARDEN COMPLEX,,595.0,15.0,,
10301,488,HOWARD,AVE,,,,64,STATEN ISLAND,MULTIPLE DWELLING A,GARDEN COMPLEX,,595.0,15.0,,
10301,489,HOWARD,AVE,,,,64,STATEN ISLAND,MULTIPLE DWELLING A,GARDEN COMPLEX,,595.0,15.0,,
10301,490,HOWARD,AVE,,,,64,STATEN ISLAND,MULTIPLE DWELLING A,GARDEN COMPLEX,,595.0,15.0,,
10301,491,HOWARD,AVE,,,,64,STATEN ISLAND,MULTIPLE DWELLING A,GARDEN COMPLEX,,595.0,15.0,,
10301,492,HOWARD,AVE,,,,64,STATEN ISLAND,MULTIPLE DWELLING A,GARDEN COMPLEX,,595.0,15.0,,
10301,493,HOWARD,AVE,,,,64,STATEN ISLAND,MULTIPLE DWELLING A,GARDEN COMPLEX,,595.0,15.0,,
10301,494,HOWARD,AVE,,,,64,STATEN ISLAND,MULTIPLE DWELLING A,GARDEN COMPLEX,,595.0,15.0,,
10301,495,HOWARD,AVE,,,,64,STATEN ISLAND,MULTIPLE DWELLING A,GARDEN COMPLEX,,595.0,15.0,,
10301,496,HOWARD,AVE,,,,64,STATEN ISLAND,MULTIPLE DWELLING A,GARDEN COMPLEX,,595.0,15.0,,
10301,497,HOWARD,AVE,,,,64,STATEN ISLAND,MULTIPLE DWELLING A,GARDEN COMPLEX,,595.0,15.0,,
10301,498,HOWARD,AVE,,,,64,STATEN ISLAND,MULTIPLE DWELLING A,GARDEN COMPLEX,,595.0,15.0,,
10301,499,HOWARD,AVE,,,,64,STATEN ISLAND,MULTIPLE DWELLING A,GARDEN COMPLEX,,595.0,15.0,,
10301,500,HOWARD,AVE,,,,64,STATEN ISLAND,MULTIPLE DWELLING A,GARDEN COMPLEX,,595.0,15.0,,
10301,501,HOWARD,AVE,,,,64,STATEN ISLAND,MULTIPLE DWELLING A,GARDEN COMPLEX,,595.0,15.0,,
10301,502,HOWARD,AVE,,,,64,STATEN ISLAND,MULTIPLE DWELLING A,GARDEN COMPLEX,,595.0,15.0,,
10301,503,HOWARD,AVE,,,,64,STATEN ISLAND,MULTIPLE DWELLING A,GARDEN COMPLEX,,595.0,15.0,,
10301,504,HOWARD,AVE,,,,64,STATEN ISLAND,MULTIPLE DWELLING A,GARDEN COMPLEX,,595.0,15.0,,
10301,490,HOWARD,AVE,,,,64,STATEN ISLAND,MULTIPLE DWELLING A,GARDEN COMPLEX,,595.0,15.0,,
10301,492,HOWARD,AVE,,,,64,STATEN ISLAND,MULTIPLE DWELLING A,GARDEN COMPLEX,,595.0,15.0,,
10301,496,HOWARD,AVE,,,,64,STATEN ISLAND,MULTIPLE DWELLING A,GARDEN COMPLEX,,595.0,15.0,,
10301,500,HOWARD,AVE,,,,64,STATEN ISLAND,MULTIPLE DWELLING A,GARDEN COMPLEX,,595.0,15.0,,
10301,516,HOWARD,AVE,,,,64,STATEN ISLAND,MULTIPLE DWELLING A,GARDEN COMPLEX,,595.0,15.0,,
10301,520,HOWARD,AVE,,,,64,STATEN ISLAND,MULTIPLE DWELLING A,GARDEN COMPLEX,,595.0,15.0,,
10301,524,HOWARD,AVE,,,,64,STATEN ISLAND,MULTIPLE DWELLING A,GARDEN COMPLEX,,595.0,15.0,,
10301,528,HOWARD,AVE,,,,64,STATEN ISLAND,MULTIPLE DWELLING A,GARDEN COMPLEX,,595.0,15.0,,
10301,532,HOWARD,AVE,,,,64,STATEN ISLAND,MULTIPLE DWELLING A,GARDEN COMPLEX,,595.0,15.0,,
10301,536,HOWARD,AVE,,,,64,STATEN ISLAND,MULTIPLE DWELLING A,GARDEN COMPLEX,,595.0,15.0,,
10301,544,HOWARD,AVE,,,,64,STATEN ISLAND,MULTIPLE DWELLING A,GARDEN COMPLEX,,595.0,15.0,,
10301,550,HOWARD,AVE,,,,64,STATEN ISLAND,MULTIPLE DWELLING A,GARDEN COMPLEX,,595.0,15.0,,
10301,4,HUNTER,PL,,,,64,STATEN ISLAND,MULTIPLE DWELLING A,,,132.0,367.0,,
10301,5,HUNTER,PL,,,,64,STATEN ISLAND,MULTIPLE DWELLING A,,,132.0,367.0,,
10301,6,HUNTER,PL,,,,64,STATEN ISLAND,MULTIPLE DWELLING A,,,132.0,367.0,,
10301,7,HUNTER,PL,,,,64,STATEN ISLAND,MULTIPLE DWELLING A,,,132.0,367.0,,
10301,8,HUNTER,PL,,,,64,STATEN ISLAND,MULTIPLE DWELLING A,,,132.0,367.0,,
10301,32,MONROE,AVE,,,,64,STATEN ISLAND,MULTIPLE DWELLING A,,,18.0,127.0,,
10301,36,MONROE,AVE,,,,64,STATEN ISLAND,MULTIPLE DWELLING A,,,18.0,130.0,,
10301,85,MONTGOMERY,AVE,,,,64,STATEN ISLAND,MULTIPLE DWELLING A,421-A (1-15),,16.0,31.0,,
10301,2,NICHOLAS,ST,,,,64,STATEN ISLAND,MULTIPLE DWELLING A,,,14.0,108.0,,
10301,4,NICHOLAS,ST,,,,64,STATEN ISLAND,MULTIPLE DWELLING A,,,14.0,108.0,,
10301,17,OSWEGO,ST,,,,64,STATEN ISLAND,MULTIPLE DWELLING A,,,655.0,30.0,,
10301,18,OSWEGO,ST,,,,64,STATEN ISLAND,MULTIPLE DWELLING A,,,655.0,30.0,,
10301,19,OSWEGO,ST,,,,64,STATEN ISLAND,MULTIPLE DWELLING A,,,655.0,30.0,,
10301,155,PROSPECT,AVE,,,,64,STATEN ISLAND,MULTIPLE DWELLING A,,,64.0,3.0,,
10301,224,RICHMOND,TER,,,,64,STATEN ISLAND,MULTIPLE DWELLING A,,,13.0,60.0,,
10301,250,RICHMOND,TER,,,,64,STATEN ISLAND,MULTIPLE DWELLING A,,,14.0,96.0,,
10301,251,RICHMOND,TER,,,,64,STATEN ISLAND,MULTIPLE DWELLING A,,,14.0,96.0,,
10301,252,RICHMOND,TER,,,,64,STATEN ISLAND,MULTIPLE DWELLING A,,,14.0,96.0,,
10301,388,RICHMOND,TER,,,,64,STATEN ISLAND,MULTIPLE DWELLING A,,,3.0,15.0,,
10301,514,RICHMOND,TER,,,,64,STATEN ISLAND,MULTIPLE DWELLING A,,,62.0,106.0,,
10301,536,RICHMOND,TER,,,,64,STATEN ISLAND,MULTIPLE DWELLING B,ROOMING HOUSE,,62.0,11.0,,
10301,80,SAINT MARKS,PL,,,,64,STATEN ISLAND,MULTIPLE DWELLING A,,,22.0,70.0,,
10301,81,SAINT MARKS,PL,,,,64,STATEN ISLAND,MULTIPLE DWELLING A,,,22.0,70.0,,
10301,82,SAINT MARKS,PL,,,,64,STATEN ISLAND,MULTIPLE DWELLING A,,,22.0,70.0,,
10301,90,SAINT MARKS,PL,,,,64,STATEN ISLAND,MULTIPLE DWELLING A,,,22.0,70.0,,
10301,91,SAINT MARKS,PL,,,,64,STATEN ISLAND,MULTIPLE DWELLING A,,,22.0,70.0,,
10301,92,SAINT MARKS,PL,,,,64,STATEN ISLAND,MULTIPLE DWELLING A,,,22.0,70.0,,
10301,141,SAINT MARKS,PL,,,,64,STATEN ISLAND,MULTIPLE DWELLING A,,,15.0,1.0,,
10301,273,SAINT MARKS,PL,,,,64,STATEN ISLAND,MULTIPLE DWELLING A,ROOMING HOUSE,,8.0,34.0,,
10301,285,SAINT MARKS,PL,,,,64,STATEN ISLAND,MULTIPLE DWELLING A,,,8.0,25.0,,
10301,299,SAINT MARKS,PL,,,,64,STATEN ISLAND,MULTIPLE DWELLING A,,,8.0,19.0,,
10301,84,SAINT PAULS,AVE,,,,64,STATEN ISLAND,MULTIPLE DWELLING B,ROOMING HOUSE,,569.0,10.0,,
10301,40,SCRIBNER,AVE,,,,64,STATEN ISLAND,MULTIPLE DWELLING A,,,36.0,59.0,,
10301,41,SCRIBNER,AVE,,,,64,STATEN ISLAND,MULTIPLE DWELLING A,,,36.0,59.0,,
10301,42,SCRIBNER,AVE,,,,64,STATEN ISLAND,MULTIPLE DWELLING A,,,36.0,59.0,,
10301,25,SHERMAN,AVE,,,,64,STATEN ISLAND,MULTIPLE DWELLING A,,,26.0,13.0,,
10301,131,SILVER LAKE,RD,,,,64,STATEN ISLAND,MULTIPLE DWELLING A,,,128.0,1.0,,
10301,177,SILVER LAKE,RD,,,,64,STATEN ISLAND,MULTIPLE DWELLING A,,,128.0,18.0,,
10301,1,SLOSSON,TER,,,,64,STATEN ISLAND,MULTIPLE DWELLING B,,,5.0,118.0,,
10301,2,SLOSSON,TER,,,,64,STATEN ISLAND,MULTIPLE DWELLING B,,,5.0,118.0,,
10301,3,SLOSSON,TER,,,,64,STATEN ISLAND,MULTIPLE DWELLING B,,,5.0,118.0,,
10301,5,SLOSSON,TER,,,,64,STATEN ISLAND,MULTIPLE DWELLING B,,,5.0,120.0,,
10301,6,SLOSSON,TER,,,,64,STATEN ISLAND,MULTIPLE DWELLING B,,,5.0,120.0,,
10301,7,SLOSSON,TER,,,,64,STATEN ISLAND,MULTIPLE DWELLING B,,,5.0,120.0,,
10301,9,SLOSSON,TER,,,,64,STATEN ISLAND,MULTIPLE DWELLING B,ROOMING HOUSE,,5.0,122.0,,
10301,10,SLOSSON,TER,,,,64,STATEN ISLAND,MULTIPLE DWELLING B,ROOMING HOUSE,,5.0,122.0,,
10301,11,SLOSSON,TER,,,,64,STATEN ISLAND,MULTIPLE DWELLING B,ROOMING HOUSE,,5.0,122.0,,
10301,13,SLOSSON,TER,,,,64,STATEN ISLAND,MULTIPLE DWELLING B,,,5.0,124.0,,
10301,14,SLOSSON,TER,,,,64,STATEN ISLAND,MULTIPLE DWELLING B,,,5.0,124.0,,
10301,15,SLOSSON,TER,,,,64,STATEN ISLAND,MULTIPLE DWELLING B,,,5.0,124.0,,
10301,17,SLOSSON,TER,,,,64,STATEN ISLAND,MULTIPLE DWELLING B,ROOMING HOUSE,,5.0,35.0,,
10301,18,SLOSSON,TER,,,,64,STATEN ISLAND,MULTIPLE DWELLING B,ROOMING HOUSE,,5.0,35.0,,
10301,19,SLOSSON,TER,,,,64,STATEN ISLAND,MULTIPLE DWELLING B,ROOMING HOUSE,,5.0,35.0,,
10301,7,STRATFORD,AVE,,,,64,STATEN ISLAND,MULTIPLE DWELLING A,GARDEN COMPLEX,,595.0,15.0,,
10301,11,STRATFORD,AVE,,,,64,STATEN ISLAND,MULTIPLE DWELLING A,GARDEN COMPLEX,,595.0,15.0,,
10301,21,STRATFORD,AVE,,,,64,STATEN ISLAND,MULTIPLE DWELLING A,GARDEN COMPLEX,,595.0,15.0,,
10301,25,STRATFORD,AVE,,,,64,STATEN ISLAND,MULTIPLE DWELLING A,GARDEN COMPLEX,,595.0,15.0,,
10301,27,STRATFORD,AVE,,,,64,STATEN ISLAND,MULTIPLE DWELLING A,GARDEN COMPLEX,,595.0,15.0,,
10301,29,STRATFORD,AVE,,,,64,STATEN ISLAND,MULTIPLE DWELLING A,GARDEN COMPLEX,,595.0,15.0,,
10301,31,STRATFORD,AVE,,,,64,STATEN ISLAND,MULTIPLE DWELLING A,GARDEN COMPLEX,,595.0,15.0,,
10301,33,STRATFORD,AVE,,,,64,STATEN ISLAND,MULTIPLE DWELLING A,GARDEN COMPLEX,,595.0,15.0,,
10301,35,STRATFORD,AVE,,,,64,STATEN ISLAND,MULTIPLE DWELLING A,GARDEN COMPLEX,,595.0,15.0,,
10301,100,STUYVESANT,PL,,,,64,STATEN ISLAND,MULTIPLE DWELLING A,,,8.0,46.0,,
10301,115,STUYVESANT,PL,,,,64,STATEN ISLAND,MULTIPLE DWELLING A,,,7.0,50.0,,
10301,3,VAN CORTLANDT,AVE,,,,64,STATEN ISLAND,MULTIPLE DWELLING A,,,601.0,50.0,,
10301,4,VAN CORTLANDT,AVE,,,,64,STATEN ISLAND,MULTIPLE DWELLING A,,,601.0,50.0,,
10301,5,VAN CORTLANDT,AVE,,,,64,STATEN ISLAND,MULTIPLE DWELLING A,,,601.0,50.0,,
10301,6,VAN CORTLANDT,AVE,,,,64,STATEN ISLAND,MULTIPLE DWELLING A,,,601.0,50.0,,
10301,7,VAN CORTLANDT,AVE,,,,64,STATEN ISLAND,MULTIPLE DWELLING A,,,601.0,50.0,,
10301,8,VAN CORTLANDT,AVE,,,,64,STATEN ISLAND,MULTIPLE DWELLING A,,,601.0,50.0,,
10301,9,VAN CORTLANDT,AVE,,,,64,STATEN ISLAND,MULTIPLE DWELLING A,,,601.0,50.0,,
10301,193,VAN DUZER,ST,,,,64,STATEN ISLAND,MULTIPLE DWELLING A,,,505.0,46.0,,
10301,194,VAN DUZER,ST,,,,64,STATEN ISLAND,MULTIPLE DWELLING A,,,505.0,46.0,,
10301,195,VAN DUZER,ST,,,,64,STATEN ISLAND,MULTIPLE DWELLING A,,,505.0,46.0,,
10301,45,VICTORY,BLVD,,,,64,STATEN ISLAND,MULTIPLE DWELLING B,ROOMING HOUSE,,16.0,142.0,,
10301,150,VICTORY,BLVD,,,,64,STATEN ISLAND,MULTIPLE DWELLING B,421-A (16),,569.0,103.0,,
10301,200,VICTORY,BLVD,,,,64,STATEN ISLAND,MULTIPLE DWELLING B,,,575.0,22.0,,
10301,610,VICTORY,BLVD,,,,64,STATEN ISLAND,MULTIPLE DWELLING A,,,589.0,53.0,,
10301,630,VICTORY,BLVD,,,,64,STATEN ISLAND,MULTIPLE DWELLING A,,,589.0,44.0,,
10301,650,VICTORY,BLVD,,,,64,STATEN ISLAND,MULTIPLE DWELLING A,,,589.0,35.0,,
10301,700,VICTORY,BLVD,,,,64,STATEN ISLAND,MULTIPLE DWELLING A,,,590.0,1.0,,
10301,800,VICTORY,BLVD,,,,64,STATEN ISLAND,MULTIPLE DWELLING A,,,593.0,1.0,,
10301,937,VICTORY,BLVD,,,,64,STATEN ISLAND,MULTIPLE DWELLING A,GARDEN COMPLEX,,240.0,3.0,,
10301,961,VICTORY,BLVD,,,,64,STATEN ISLAND,MULTIPLE DWELLING A,GARDEN COMPLEX,,240.0,16.0,,
10301,50,WALL,ST,,,,64,STATEN ISLAND,MULTIPLE DWELLING A,,,8.0,43.0,,
10301,54,WALL,ST,,,,64,STATEN ISLAND,MULTIPLE DWELLING A,,,8.0,41.0,,
10301,62,WALL,ST,,,,64,STATEN ISLAND,MULTIPLE DWELLING A,,,8.0,40.0,,
10301,65,WESTERVELT,AVE,,,,64,STATEN ISLAND,MULTIPLE DWELLING A,,,22.0,112.0,,
10301,319,WESTERVELT,AVE,2 TO 20,HENDRICKS,AVE,64,STATEN ISLAND,MULTIPLE DWELLING A,GARDEN COMPLEX,,27.0,6.0,,
10301,320,WESTERVELT,AVE,2 TO 20,HENDRICKS,AVE,64,STATEN ISLAND,MULTIPLE DWELLING A,GARDEN COMPLEX,,27.0,6.0,,
10301,321,WESTERVELT,AVE,2 TO 20,HENDRICKS,AVE,64,STATEN ISLAND,MULTIPLE DWELLING A,GARDEN COMPLEX,,27.0,6.0,,
10301,322,WESTERVELT,AVE,2 TO 20,HENDRICKS,AVE,64,STATEN ISLAND,MULTIPLE DWELLING A,GARDEN COMPLEX,,27.0,6.0,,
10301,323,WESTERVELT,AVE,2 TO 20,HENDRICKS,AVE,64,STATEN ISLAND,MULTIPLE DWELLING A,GARDEN COMPLEX,,27.0,6.0,,
10301,324,WESTERVELT,AVE,2 TO 20,HENDRICKS,AVE,64,STATEN ISLAND,MULTIPLE DWELLING A,GARDEN COMPLEX,,27.0,6.0,,
10301,325,WESTERVELT,AVE,2 TO 20,HENDRICKS,AVE,64,STATEN ISLAND,MULTIPLE DWELLING A,GARDEN COMPLEX,,27.0,6.0,,
10301,363,WESTERVELT,AVE,,,,64,STATEN ISLAND,MULTIPLE DWELLING B,,,25.0,25.0,,
10301,375,WOODSTOCK,AVE,,,,64,STATEN ISLAND,MULTIPLE DWELLING A,,,114.0,5.0,,
10301,407,WOODSTOCK,AVE,,,,64,STATEN ISLAND,MULTIPLE DWELLING A,,,115.0,6.0,,
10302,1540,CASTLETON,AVE,,,,64,STATEN ISLAND,MULTIPLE DWELLING A,,,1035.0,12.0,,
10302,1541,CASTLETON,AVE,,,,64,STATEN ISLAND,MULTIPLE DWELLING A,,,1035.0,12.0,,
10302,1542,CASTLETON,AVE,,,,64,STATEN ISLAND,MULTIPLE DWELLING A,,,1035.0,12.0,,
10302,1543,CASTLETON,AVE,,,,64,STATEN ISLAND,MULTIPLE DWELLING A,,,1035.0,12.0,,
10302,1544,CASTLETON,AVE,,,,64,STATEN ISLAND,MULTIPLE DWELLING A,,,1035.0,12.0,,
10302,1545,CASTLETON,AVE,,,,64,STATEN ISLAND,MULTIPLE DWELLING A,,,1035.0,12.0,,
10302,1546,CASTLETON,AVE,,,,64,STATEN ISLAND,MULTIPLE DWELLING A,,,1035.0,12.0,,
10302,100,HAMLIN,PL,,,,64,STATEN ISLAND,MULTIPLE DWELLING A,,,386.0,1.0,,
10302,101,HAMLIN,PL,,,,64,STATEN ISLAND,MULTIPLE DWELLING A,,,386.0,1.0,,
10302,102,HAMLIN,PL,,,,64,STATEN ISLAND,MULTIPLE DWELLING A,,,386.0,1.0,,
10302,137,HEBERTON,AVE,,,,64,STATEN ISLAND,MULTIPLE DWELLING A,GARDEN COMPLEX,,1015.0,1.0,,
10302,160,HEBERTON,AVE,,,,64,STATEN ISLAND,MULTIPLE DWELLING A,,,1020.0,20.0,,
10302,192,HEBERTON,AVE,,,,64,STATEN ISLAND,MULTIPLE DWELLING B,ROOMING HOUSE,,1021.0,30.0,,
10302,245,HEBERTON,AVE,,,,64,STATEN ISLAND,MULTIPLE DWELLING B,,,1030.0,38.0,,
10302,317,JEWETT,AVE,,,,64,STATEN ISLAND,MULTIPLE DWELLING A,GARDEN COMPLEX,,238.0,46.0,,
10302,318,JEWETT,AVE,,,,64,STATEN ISLAND,MULTIPLE DWELLING A,GARDEN COMPLEX,,238.0,46.0,,
10302,319,JEWETT,AVE,,,,64,STATEN ISLAND,MULTIPLE DWELLING A,GARDEN COMPLEX,,238.0,46.0,,
10302,320,JEWETT,AVE,,,,64,STATEN ISLAND,MULTIPLE DWELLING A,GARDEN COMPLEX,,238.0,46.0,,
10302,321,JEWETT,AVE,,,,64,STATEN ISLAND,MULTIPLE DWELLING A,GARDEN COMPLEX,,238.0,46.0,,
10302,322,JEWETT,AVE,,,,64,STATEN ISLAND,MULTIPLE DWELLING A,GARDEN COMPLEX,,238.0,46.0,,
10302,323,JEWETT,AVE,,,,64,STATEN ISLAND,MULTIPLE DWELLING A,GARDEN COMPLEX,,238.0,46.0,,
10302,324,JEWETT,AVE,,,,64,STATEN ISLAND,MULTIPLE DWELLING A,GARDEN COMPLEX,,238.0,46.0,,
10302,325,JEWETT,AVE,,,,64,STATEN ISLAND,MULTIPLE DWELLING A,GARDEN COMPLEX,,238.0,46.0,,
10302,565,JEWETT,AVE,,,,64,STATEN ISLAND,MULTIPLE DWELLING A,,,356.0,304.0,,
10302,566,JEWETT,AVE,,,,64,STATEN ISLAND,MULTIPLE DWELLING A,,,356.0,304.0,,
10302,567,JEWETT,AVE,,,,64,STATEN ISLAND,MULTIPLE DWELLING A,,,356.0,304.0,,
10302,568,JEWETT,AVE,,,,64,STATEN ISLAND,MULTIPLE DWELLING A,,,356.0,304.0,,
10302,569,JEWETT,AVE,,,,64,STATEN ISLAND,MULTIPLE DWELLING A,,,356.0,304.0,,
10302,575,JEWETT,AVE,,,,64,STATEN ISLAND,MULTIPLE DWELLING A,,,356.0,172.0,,
10302,18,MAPLE,AVE,,,,64,STATEN ISLAND,MULTIPLE DWELLING B,ROOMING HOUSE,,,,,
10302,150,NICHOLAS,AVE,,,,64,STATEN ISLAND,MULTIPLE DWELLING B,GARDEN COMPLEX,,1117.0,37.0,,
10302,152,NICHOLAS,AVE,,,,64,STATEN ISLAND,MULTIPLE DWELLING B,,,1117.0,37.0,,
10302,70,PARK,AVE,81 TO 85,ANN,ST,64,STATEN ISLAND,MULTIPLE DWELLING A,,,1004.0,32.0,,
10302,11,PORT RICHMOND,AVE,,,,64,STATEN ISLAND,MULTIPLE DWELLING A,GARDEN COMPLEX,,1003.0,14.0,,
10302,151,PORT RICHMOND,AVE,,,,64,STATEN ISLAND,MULTIPLE DWELLING A,,,1023.0,10.0,,
10302,601,PORT RICHMOND,AVE,,,,64,STATEN ISLAND,MULTIPLE DWELLING A,GARDEN COMPLEX,,1060.0,24.0,,
10302,945,POST,AVE,,,,64,STATEN ISLAND,MULTIPLE DWELLING B,ROOMING HOUSE,,1027.0,26.0,,
10302,946,POST,AVE,,,,64,STATEN ISLAND,MULTIPLE DWELLING B,ROOMING HOUSE,,1027.0,26.0,,
10302,947,POST,AVE,,,,64,STATEN ISLAND,MULTIPLE DWELLING B,ROOMING HOUSE,,1027.0,26.0,,
10302,17,SLAIGHT,ST,,,,64,STATEN ISLAND,MULTIPLE DWELLING A,,,1086.0,8.0,,
10302,31,SLAIGHT,ST,,,,64,STATEN ISLAND,MULTIPLE DWELLING A,,,1086.0,8.0,,
10302,150,TRANTOR,PL,,,,64,STATEN ISLAND,MULTIPLE DWELLING A,,,1133.0,78.0,,
10302,160,TRANTOR,PL,,,,64,STATEN ISLAND,MULTIPLE DWELLING A,,,1133.0,78.0,,
10302,165,TRANTOR,PL,,,,64,STATEN ISLAND,MULTIPLE DWELLING A,,,1133.0,85.0,,
10302,170,TRANTOR,PL,,,,64,STATEN ISLAND,MULTIPLE DWELLING A,,,1133.0,78.0,,
10302,171,TRANTOR,PL,,,,64,STATEN ISLAND,MULTIPLE DWELLING A,,,1133.0,85.0,,
10302,175,TRANTOR,PL,,,,64,STATEN ISLAND,MULTIPLE DWELLING A,,,1133.0,85.0,,
10302,180,TRANTOR,PL,,,,64,STATEN ISLAND,MULTIPLE DWELLING A,,,1133.0,78.0,,
10302,181,TRANTOR,PL,,,,64,STATEN ISLAND,MULTIPLE DWELLING A,,,1133.0,85.0,,
10302,185,TRANTOR,PL,,,,64,STATEN ISLAND,MULTIPLE DWELLING A,,,1133.0,85.0,,
10302,190,TRANTOR,PL,,,,64,STATEN ISLAND,MULTIPLE DWELLING A,,,1133.0,78.0,,
10302,195,TRANTOR,PL,,,,64,STATEN ISLAND,MULTIPLE DWELLING A,,,1133.0,85.0,,
10302,200,TRANTOR,PL,,,,64,STATEN ISLAND,MULTIPLE DWELLING A,,,1133.0,13.0,,
10302,205,TRANTOR,PL,,,,64,STATEN ISLAND,MULTIPLE DWELLING A,,,1133.0,85.0,,
10302,210,TRANTOR,PL,,,,64,STATEN ISLAND,MULTIPLE DWELLING A,,,1133.0,13.0,,
10302,215,TRANTOR,PL,,,,64,STATEN ISLAND,MULTIPLE DWELLING A,,,1133.0,85.0,,
10302,220,TRANTOR,PL,,,,64,STATEN ISLAND,MULTIPLE DWELLING A,,,1133.0,13.0,,
10302,90,VREELAND,ST,,,,64,STATEN ISLAND,MULTIPLE DWELLING B,ROOMING HOUSE,,1023.0,15.0,,
10303,80,ANDROS,AVE,,,,64,STATEN ISLAND,MULTIPLE DWELLING A,GARDEN COMPLEX,,1239.0,1.0,,
10303,81,ANDROS,AVE,,,,64,STATEN ISLAND,MULTIPLE DWELLING A,GARDEN COMPLEX,,1239.0,1.0,,
10303,82,ANDROS,AVE,,,,64,STATEN ISLAND,MULTIPLE DWELLING A,GARDEN COMPLEX,,1239.0,1.0,,
10303,83,ANDROS,AVE,,,,64,STATEN ISLAND,MULTIPLE DWELLING A,GARDEN COMPLEX,,1239.0,1.0,,
10303,84,ANDROS,AVE,,,,64,STATEN ISLAND,MULTIPLE DWELLING A,GARDEN COMPLEX,,1239.0,1.0,,
10303,85,ANDROS,AVE,,,,64,STATEN ISLAND,MULTIPLE DWELLING A,GARDEN COMPLEX,,1239.0,1.0,,
10303,86,ANDROS,AVE,,,,64,STATEN ISLAND,MULTIPLE DWELLING A,GARDEN COMPLEX,,1239.0,1.0,,
10303,87,ANDROS,AVE,,,,64,STATEN ISLAND,MULTIPLE DWELLING A,GARDEN COMPLEX,,1239.0,1.0,,
10303,88,ANDROS,AVE,,,,64,STATEN ISLAND,MULTIPLE DWELLING A,GARDEN COMPLEX,,1239.0,1.0,,
10303,85,BRABANT,ST,,,,64,STATEN ISLAND,MULTIPLE DWELLING A,,,1243.0,1.0,,
10303,87,BRABANT,ST,,,,64,STATEN ISLAND,MULTIPLE DWELLING A,,,1243.0,1.0,,
10303,91,BRABANT,ST,,,,64,STATEN ISLAND,MULTIPLE DWELLING A,,,1243.0,1.0,,
10303,93,BRABANT,ST,,,,64,STATEN ISLAND,MULTIPLE DWELLING A,,,1243.0,1.0,,
10303,14,DAVIDSON,CT,,,,64,STATEN ISLAND,MULTIPLE DWELLING A,GARDEN COMPLEX,,1239.0,1.0,,
10303,15,DAVIDSON,CT,,,,64,STATEN ISLAND,MULTIPLE DWELLING A,GARDEN COMPLEX,,1239.0,1.0,,
10303,16,DAVIDSON,CT,,,,64,STATEN ISLAND,MULTIPLE DWELLING A,GARDEN COMPLEX,,1239.0,1.0,,
10303,17,DAVIDSON,CT,,,,64,STATEN ISLAND,MULTIPLE DWELLING A,GARDEN COMPLEX,,1239.0,1.0,,
10303,18,DAVIDSON,CT,,,,64,STATEN ISLAND,MULTIPLE DWELLING A,GARDEN COMPLEX,,1239.0,1.0,,
10303,19,DAVIDSON,CT,,,,64,STATEN ISLAND,MULTIPLE DWELLING A,GARDEN COMPLEX,,1239.0,1.0,,
10303,20,DAVIDSON,CT,,,,64,STATEN ISLAND,MULTIPLE DWELLING A,GARDEN COMPLEX,,1239.0,1.0,,
10303,21,DAVIDSON,CT,,,,64,STATEN ISLAND,MULTIPLE DWELLING A,GARDEN COMPLEX,,1239.0,1.0,,
10303,22,DAVIDSON,CT,,,,64,STATEN ISLAND,MULTIPLE DWELLING A,GARDEN COMPLEX,,1239.0,1.0,,
10303,15,DAVIDSON,CT,,,,64,STATEN ISLAND,MULTIPLE DWELLING A,GARDEN COMPLEX,,1239.0,1.0,,
10303,16,DAVIDSON,CT,,,,64,STATEN ISLAND,MULTIPLE DWELLING A,GARDEN COMPLEX,,1239.0,1.0,,
10303,17,DAVIDSON,CT,,,,64,STATEN ISLAND,MULTIPLE DWELLING A,GARDEN COMPLEX,,1239.0,1.0,,
10303,18,DAVIDSON,CT,,,,64,STATEN ISLAND,MULTIPLE DWELLING A,GARDEN COMPLEX,,1239.0,1.0,,
10303,19,DAVIDSON,CT,,,,64,STATEN ISLAND,MULTIPLE DWELLING A,GARDEN COMPLEX,,1239.0,1.0,,
10303,20,DAVIDSON,CT,,,,64,STATEN ISLAND,MULTIPLE DWELLING A,GARDEN COMPLEX,,1239.0,1.0,,
10303,21,DAVIDSON,CT,,,,64,STATEN ISLAND,MULTIPLE DWELLING A,GARDEN COMPLEX,,1239.0,1.0,,
10303,22,DAVIDSON,CT,,,,64,STATEN ISLAND,MULTIPLE DWELLING A,GARDEN COMPLEX,,1239.0,1.0,,
10303,23,DAVIDSON,CT,,,,64,STATEN ISLAND,MULTIPLE DWELLING A,GARDEN COMPLEX,,1239.0,1.0,,
10303,15,HARBOR,LOOP,,,,64,STATEN ISLAND,MULTIPLE DWELLING A,,,1243.0,1.0,,
10303,20,HARBOR,LOOP,,,,64,STATEN ISLAND,MULTIPLE DWELLING A,,,1243.0,1.0,,
10303,25,HARBOR,LOOP,,,,64,STATEN ISLAND,MULTIPLE DWELLING A,,,1243.0,1.0,,
10303,35,HARBOR,LOOP,,,,64,STATEN ISLAND,MULTIPLE DWELLING A,,,1243.0,1.0,,
10303,40,HARBOR,LOOP,,,,64,STATEN ISLAND,MULTIPLE DWELLING A,,,1243.0,1.0,,
10303,45,HARBOR,LOOP,,,,64,STATEN ISLAND,MULTIPLE DWELLING A,,,1243.0,1.0,,
10303,50,HARBOR,LOOP,,,,64,STATEN ISLAND,MULTIPLE DWELLING A,,,1243.0,1.0,,
10303,55,HARBOR,LOOP,,,,64,STATEN ISLAND,MULTIPLE DWELLING A,,,1243.0,1.0,,
10303,60,HARBOR,LOOP,,,,64,STATEN ISLAND,MULTIPLE DWELLING A,,,1243.0,1.0,,
10303,70,HARBOR,LOOP,,,,64,STATEN ISLAND,MULTIPLE DWELLING A,,,1243.0,1.0,,
10303,85,HARBOR,LOOP,,,,64,STATEN ISLAND,MULTIPLE DWELLING A,,,1243.0,1.0,,
10303,95,HARBOR,LOOP,,,,64,STATEN ISLAND,MULTIPLE DWELLING A,,,1243.0,1.0,,
10303,105,HARBOR,LOOP,,,,64,STATEN ISLAND,MULTIPLE DWELLING A,,,,1.0,1243,
10303,115,HARBOR,LOOP,,,,64,STATEN ISLAND,MULTIPLE DWELLING A,,,,1.0,1243,
10303,125,HARBOR,LOOP,,,,64,STATEN ISLAND,MULTIPLE DWELLING A,,,,1.0,1243,
10303,174,HARBOR,LOOP,,,,64,STATEN ISLAND,MULTIPLE DWELLING A,,,,64.0,1243,
10303,331,HARBOR,RD,,,,64,STATEN ISLAND,MULTIPLE DWELLING A,,,,22.0,1234,
10303,339,HARBOR,RD,,,,64,STATEN ISLAND,MULTIPLE DWELLING A,,,,22.0,1234,
10303,20,LOCKMAN,LOOP,130.0,HARBOR,LOOP,64,STATEN ISLAND,MULTIPLE DWELLING A,,,,20.0,1243,
10303,21,LOCKMAN,LOOP,130.0,HARBOR,LOOP,64,STATEN ISLAND,MULTIPLE DWELLING A,,,,20.0,1243,
10303,22,LOCKMAN,LOOP,130.0,HARBOR,LOOP,64,STATEN ISLAND,MULTIPLE DWELLING A,,,,20.0,1243,
10303,23,LOCKMAN,LOOP,130.0,HARBOR,LOOP,64,STATEN ISLAND,MULTIPLE DWELLING A,,,,20.0,1243,
10303,24,LOCKMAN,LOOP,130.0,HARBOR,LOOP,64,STATEN ISLAND,MULTIPLE DWELLING A,,,,20.0,1243,
10303,25,LOCKMAN,LOOP,130.0,HARBOR,LOOP,64,STATEN ISLAND,MULTIPLE DWELLING A,,,,20.0,1243,
10303,26,LOCKMAN,LOOP,130.0,HARBOR,LOOP,64,STATEN ISLAND,MULTIPLE DWELLING A,,,,20.0,1243,
10303,27,LOCKMAN,LOOP,130.0,HARBOR,LOOP,64,STATEN ISLAND,MULTIPLE DWELLING A,,,,20.0,1243,
10303,28,LOCKMAN,LOOP,130.0,HARBOR,LOOP,64,STATEN ISLAND,MULTIPLE DWELLING A,,,,20.0,1243,
10303,29,LOCKMAN,LOOP,130.0,HARBOR,LOOP,64,STATEN ISLAND,MULTIPLE DWELLING A,,,,20.0,1243,
10303,30,LOCKMAN,LOOP,130.0,HARBOR,LOOP,64,STATEN ISLAND,MULTIPLE DWELLING A,,,,20.0,1243,
10303,31,LOCKMAN,LOOP,130.0,HARBOR,LOOP,64,STATEN ISLAND,MULTIPLE DWELLING A,,,,20.0,1243,
10303,32,LOCKMAN,LOOP,130.0,HARBOR,LOOP,64,STATEN ISLAND,MULTIPLE DWELLING A,,,,20.0,1243,
10303,33,LOCKMAN,LOOP,130.0,HARBOR,LOOP,64,STATEN ISLAND,MULTIPLE DWELLING A,,,,20.0,1243,
10303,34,LOCKMAN,LOOP,130.0,HARBOR,LOOP,64,STATEN ISLAND,MULTIPLE DWELLING A,,,,20.0,1243,
10303,35,LOCKMAN,LOOP,130.0,HARBOR,LOOP,64,STATEN ISLAND,MULTIPLE DWELLING A,,,,20.0,1243,
10303,36,LOCKMAN,LOOP,130.0,HARBOR,LOOP,64,STATEN ISLAND,MULTIPLE DWELLING A,,,,20.0,1243,
10303,37,LOCKMAN,LOOP,130.0,HARBOR,LOOP,64,STATEN ISLAND,MULTIPLE DWELLING A,,,,20.0,1243,
10303,38,LOCKMAN,LOOP,130.0,HARBOR,LOOP,64,STATEN ISLAND,MULTIPLE DWELLING A,,,,20.0,1243,
10303,39,LOCKMAN,LOOP,130.0,HARBOR,LOOP,64,STATEN ISLAND,MULTIPLE DWELLING A,,,,20.0,1243,
10303,40,LOCKMAN,LOOP,130.0,HARBOR,LOOP,64,STATEN ISLAND,MULTIPLE DWELLING A,,,,20.0,1243,
10303,41,LOCKMAN,LOOP,130.0,HARBOR,LOOP,64,STATEN ISLAND,MULTIPLE DWELLING A,,,,20.0,1243,
10303,42,LOCKMAN,LOOP,130.0,HARBOR,LOOP,64,STATEN ISLAND,MULTIPLE DWELLING A,,,,20.0,1243,
10303,43,LOCKMAN,LOOP,130.0,HARBOR,LOOP,64,STATEN ISLAND,MULTIPLE DWELLING A,,,,20.0,1243,
10303,44,LOCKMAN,LOOP,130.0,HARBOR,LOOP,64,STATEN ISLAND,MULTIPLE DWELLING A,,,,20.0,1243,
10303,45,LOCKMAN,LOOP,130.0,HARBOR,LOOP,64,STATEN ISLAND,MULTIPLE DWELLING A,,,,20.0,1243,
10303,46,LOCKMAN,LOOP,130.0,HARBOR,LOOP,64,STATEN ISLAND,MULTIPLE DWELLING A,,,,20.0,1243,
10303,47,LOCKMAN,LOOP,130.0,HARBOR,LOOP,64,STATEN ISLAND,MULTIPLE DWELLING A,,,,20.0,1243,
10303,48,LOCKMAN,LOOP,130.0,HARBOR,LOOP,64,STATEN ISLAND,MULTIPLE DWELLING A,,,,20.0,1243,
10303,49,LOCKMAN,LOOP,130.0,HARBOR,LOOP,64,STATEN ISLAND,MULTIPLE DWELLING A,,,,20.0,1243,
10303,50,LOCKMAN,LOOP,130.0,HARBOR,LOOP,64,STATEN ISLAND,MULTIPLE DWELLING A,,,,20.0,1243,
10303,51,LOCKMAN,LOOP,130.0,HARBOR,LOOP,64,STATEN ISLAND,MULTIPLE DWELLING A,,,,20.0,1243,
10303,52,LOCKMAN,LOOP,130.0,HARBOR,LOOP,64,STATEN ISLAND,MULTIPLE DWELLING A,,,,20.0,1243,
10303,53,LOCKMAN,LOOP,130.0,HARBOR,LOOP,64,STATEN ISLAND,MULTIPLE DWELLING A,,,,20.0,1243,
10303,54,LOCKMAN,LOOP,130.0,HARBOR,LOOP,64,STATEN ISLAND,MULTIPLE DWELLING A,,,,20.0,1243,
10303,55,LOCKMAN,LOOP,130.0,HARBOR,LOOP,64,STATEN ISLAND,MULTIPLE DWELLING A,,,,20.0,1243,
10303,56,LOCKMAN,LOOP,130.0,HARBOR,LOOP,64,STATEN ISLAND,MULTIPLE DWELLING A,,,,20.0,1243,
10303,57,LOCKMAN,LOOP,130.0,HARBOR,LOOP,64,STATEN ISLAND,MULTIPLE DWELLING A,,,,20.0,1243,
10303,58,LOCKMAN,LOOP,130.0,HARBOR,LOOP,64,STATEN ISLAND,MULTIPLE DWELLING A,,,,20.0,1243,
10303,59,LOCKMAN,LOOP,130.0,HARBOR,LOOP,64,STATEN ISLAND,MULTIPLE DWELLING A,,,,20.0,1243,
10303,60,LOCKMAN,LOOP,130.0,HARBOR,LOOP,64,STATEN ISLAND,MULTIPLE DWELLING A,,,,20.0,1243,
10303,61,LOCKMAN,LOOP,130.0,HARBOR,LOOP,64,STATEN ISLAND,MULTIPLE DWELLING A,,,,20.0,1243,
10303,62,LOCKMAN,LOOP,130.0,HARBOR,LOOP,64,STATEN ISLAND,MULTIPLE DWELLING A,,,,20.0,1243,
10303,63,LOCKMAN,LOOP,130.0,HARBOR,LOOP,64,STATEN ISLAND,MULTIPLE DWELLING A,,,,20.0,1243,
10303,64,LOCKMAN,LOOP,130.0,HARBOR,LOOP,64,STATEN ISLAND,MULTIPLE DWELLING A,,,,20.0,1243,
10303,65,LOCKMAN,LOOP,130.0,HARBOR,LOOP,64,STATEN ISLAND,MULTIPLE DWELLING A,,,,20.0,1243,
10303,66,LOCKMAN,LOOP,130.0,HARBOR,LOOP,64,STATEN ISLAND,MULTIPLE DWELLING A,,,,20.0,1243,
10303,67,LOCKMAN,LOOP,130.0,HARBOR,LOOP,64,STATEN ISLAND,MULTIPLE DWELLING A,,,,20.0,1243,
10303,68,LOCKMAN,LOOP,130.0,HARBOR,LOOP,64,STATEN ISLAND,MULTIPLE DWELLING A,,,,20.0,1243,
10303,69,LOCKMAN,LOOP,130.0,HARBOR,LOOP,64,STATEN ISLAND,MULTIPLE DWELLING A,,,,20.0,1243,
10303,70,LOCKMAN,LOOP,130.0,HARBOR,LOOP,64,STATEN ISLAND,MULTIPLE DWELLING A,,,,20.0,1243,
10303,25,LOCKMAN,LOOP,,,,64,STATEN ISLAND,MULTIPLE DWELLING A,,,,20.0,1243,
10303,26,LOCKMAN,LOOP,,,,64,STATEN ISLAND,MULTIPLE DWELLING A,,,,20.0,1243,
10303,27,LOCKMAN,LOOP,,,,64,STATEN ISLAND,MULTIPLE DWELLING A,,,,20.0,1243,
10303,28,LOCKMAN,LOOP,,,,64,STATEN ISLAND,MULTIPLE DWELLING A,,,,20.0,1243,
10303,29,LOCKMAN,LOOP,,,,64,STATEN ISLAND,MULTIPLE DWELLING A,,,,20.0,1243,
10303,30,LOCKMAN,LOOP,,,,64,STATEN ISLAND,MULTIPLE DWELLING A,,,,20.0,1243,
10303,31,LOCKMAN,LOOP,,,,64,STATEN ISLAND,MULTIPLE DWELLING A,,,,20.0,1243,
10303,32,LOCKMAN,LOOP,,,,64,STATEN ISLAND,MULTIPLE DWELLING A,,,,20.0,1243,
10303,33,LOCKMAN,LOOP,,,,64,STATEN ISLAND,MULTIPLE DWELLING A,,,,20.0,1243,
10303,34,LOCKMAN,LOOP,,,,64,STATEN ISLAND,MULTIPLE DWELLING A,,,,20.0,1243,
10303,35,LOCKMAN,LOOP,,,,64,STATEN ISLAND,MULTIPLE DWELLING A,,,,20.0,1243,
10303,36,LOCKMAN,LOOP,,,,64,STATEN ISLAND,MULTIPLE DWELLING A,,,,20.0,1243,
10303,37,LOCKMAN,LOOP,,,,64,STATEN ISLAND,MULTIPLE DWELLING A,,,,20.0,1243,
10303,38,LOCKMAN,LOOP,,,,64,STATEN ISLAND,MULTIPLE DWELLING A,,,,20.0,1243,
10303,39,LOCKMAN,LOOP,,,,64,STATEN ISLAND,MULTIPLE DWELLING A,,,,20.0,1243,
10303,40,LOCKMAN,LOOP,,,,64,STATEN ISLAND,MULTIPLE DWELLING A,,,,20.0,1243,
10303,41,LOCKMAN,LOOP,,,,64,STATEN ISLAND,MULTIPLE DWELLING A,,,,20.0,1243,
10303,42,LOCKMAN,LOOP,,,,64,STATEN ISLAND,MULTIPLE DWELLING A,,,,20.0,1243,
10303,43,LOCKMAN,LOOP,,,,64,STATEN ISLAND,MULTIPLE DWELLING A,,,,20.0,1243,
10303,44,LOCKMAN,LOOP,,,,64,STATEN ISLAND,MULTIPLE DWELLING A,,,,20.0,1243,
10303,45,LOCKMAN,LOOP,,,,64,STATEN ISLAND,MULTIPLE DWELLING A,,,,20.0,1243,
10303,46,LOCKMAN,LOOP,,,,64,STATEN ISLAND,MULTIPLE DWELLING A,,,,20.0,1243,
10303,47,LOCKMAN,LOOP,,,,64,STATEN ISLAND,MULTIPLE DWELLING A,,,,20.0,1243,
10303,48,LOCKMAN,LOOP,,,,64,STATEN ISLAND,MULTIPLE DWELLING A,,,,20.0,1243,
10303,49,LOCKMAN,LOOP,,,,64,STATEN ISLAND,MULTIPLE DWELLING A,,,,20.0,1243,
10303,50,LOCKMAN,LOOP,,,,64,STATEN ISLAND,MULTIPLE DWELLING A,,,,20.0,1243,
10303,51,LOCKMAN,LOOP,,,,64,STATEN ISLAND,MULTIPLE DWELLING A,,,,20.0,1243,
10303,52,LOCKMAN,LOOP,,,,64,STATEN ISLAND,MULTIPLE DWELLING A,,,,20.0,1243,
10303,53,LOCKMAN,LOOP,,,,64,STATEN ISLAND,MULTIPLE DWELLING A,,,,20.0,1243,
10303,54,LOCKMAN,LOOP,,,,64,STATEN ISLAND,MULTIPLE DWELLING A,,,,20.0,1243,
10303,55,LOCKMAN,LOOP,,,,64,STATEN ISLAND,MULTIPLE DWELLING A,,,,20.0,1243,
10303,56,LOCKMAN,LOOP,,,,64,STATEN ISLAND,MULTIPLE DWELLING A,,,,20.0,1243,
10303,57,LOCKMAN,LOOP,,,,64,STATEN ISLAND,MULTIPLE DWELLING A,,,,20.0,1243,
10303,58,LOCKMAN,LOOP,,,,64,STATEN ISLAND,MULTIPLE DWELLING A,,,,20.0,1243,
10303,59,LOCKMAN,LOOP,,,,64,STATEN ISLAND,MULTIPLE DWELLING A,,,,20.0,1243,
10303,60,LOCKMAN,LOOP,,,,64,STATEN ISLAND,MULTIPLE DWELLING A,,,,20.0,1243,
10303,61,LOCKMAN,LOOP,,,,64,STATEN ISLAND,MULTIPLE DWELLING A,,,,20.0,1243,
10303,62,LOCKMAN,LOOP,,,,64,STATEN ISLAND,MULTIPLE DWELLING A,,,,20.0,1243,
10303,63,LOCKMAN,LOOP,,,,64,STATEN ISLAND,MULTIPLE DWELLING A,,,,20.0,1243,
10303,64,LOCKMAN,LOOP,,,,64,STATEN ISLAND,MULTIPLE DWELLING A,,,,20.0,1243,
10303,65,LOCKMAN,LOOP,,,,64,STATEN ISLAND,MULTIPLE DWELLING A,,,,20.0,1243,
10303,66,LOCKMAN,LOOP,,,,64,STATEN ISLAND,MULTIPLE DWELLING A,,,,20.0,1243,
10303,67,LOCKMAN,LOOP,,,,64,STATEN ISLAND,MULTIPLE DWELLING A,,,,20.0,1243,
10303,68,LOCKMAN,LOOP,,,,64,STATEN ISLAND,MULTIPLE DWELLING A,,,,20.0,1243,
10303,69,LOCKMAN,LOOP,,,,64,STATEN ISLAND,MULTIPLE DWELLING A,,,,20.0,1243,
10303,70,LOCKMAN,LOOP,,,,64,STATEN ISLAND,MULTIPLE DWELLING A,,,,20.0,1243,
10303,71,LOCKMAN,LOOP,,,,64,STATEN ISLAND,MULTIPLE DWELLING A,,,,20.0,1243,
10303,72,LOCKMAN,LOOP,,,,64,STATEN ISLAND,MULTIPLE DWELLING A,,,,20.0,1243,
10303,73,LOCKMAN,LOOP,,,,64,STATEN ISLAND,MULTIPLE DWELLING A,,,,20.0,1243,
10303,74,LOCKMAN,LOOP,,,,64,STATEN ISLAND,MULTIPLE DWELLING A,,,,20.0,1243,
10303,75,LOCKMAN,LOOP,,,,64,STATEN ISLAND,MULTIPLE DWELLING A,,,,20.0,1243,
10303,76,LOCKMAN,LOOP,,,,64,STATEN ISLAND,MULTIPLE DWELLING A,,,,20.0,1243,
10303,77,LOCKMAN,LOOP,,,,64,STATEN ISLAND,MULTIPLE DWELLING A,,,,20.0,1243,
10303,78,LOCKMAN,LOOP,,,,64,STATEN ISLAND,MULTIPLE DWELLING A,,,,20.0,1243,
10303,79,LOCKMAN,LOOP,,,,64,STATEN ISLAND,MULTIPLE DWELLING A,,,,20.0,1243,
10303,80,LOCKMAN,LOOP,,,,64,STATEN ISLAND,MULTIPLE DWELLING A,,,,20.0,1243,
10303,81,LOCKMAN,LOOP,,,,64,STATEN ISLAND,MULTIPLE DWELLING A,,,,20.0,1243,
10303,82,LOCKMAN,LOOP,,,,64,STATEN ISLAND,MULTIPLE DWELLING A,,,,20.0,1243,
10303,83,LOCKMAN,LOOP,,,,64,STATEN ISLAND,MULTIPLE DWELLING A,,,,20.0,1243,
10303,84,LOCKMAN,LOOP,,,,64,STATEN ISLAND,MULTIPLE DWELLING A,,,,20.0,1243,
10303,85,LOCKMAN,LOOP,,,,64,STATEN ISLAND,MULTIPLE DWELLING A,,,,20.0,1243,
10303,86,LOCKMAN,LOOP,,,,64,STATEN ISLAND,MULTIPLE DWELLING A,,,,20.0,1243,
10303,87,LOCKMAN,LOOP,,,,64,STATEN ISLAND,MULTIPLE DWELLING A,,,,20.0,1243,
10303,88,LOCKMAN,LOOP,,,,64,STATEN ISLAND,MULTIPLE DWELLING A,,,,20.0,1243,
10303,89,LOCKMAN,LOOP,,,,64,STATEN ISLAND,MULTIPLE DWELLING A,,,,20.0,1243,
10303,90,LOCKMAN,LOOP,,,,64,STATEN ISLAND,MULTIPLE DWELLING A,,,,20.0,1243,
10303,91,LOCKMAN,LOOP,,,,64,STATEN ISLAND,MULTIPLE DWELLING A,,,,20.0,1243,
10303,92,LOCKMAN,LOOP,,,,64,STATEN ISLAND,MULTIPLE DWELLING A,,,,20.0,1243,
10303,93,LOCKMAN,LOOP,,,,64,STATEN ISLAND,MULTIPLE DWELLING A,,,,20.0,1243,
10303,94,LOCKMAN,LOOP,,,,64,STATEN ISLAND,MULTIPLE DWELLING A,,,,20.0,1243,
10303,95,LOCKMAN,LOOP,,,,64,STATEN ISLAND,MULTIPLE DWELLING A,,,,20.0,1243,
10303,207,LOCKMAN,AVE,,,,64,STATEN ISLAND,MULTIPLE DWELLING A,,,,1.0,1243,
10303,211,LOCKMAN,AVE,,,,64,STATEN ISLAND,MULTIPLE DWELLING A,,,,1.0,1243,
10303,115,MERSEREAU,AVE,,,,64,STATEN ISLAND,MULTIPLE DWELLING A,GARDEN COMPLEX,,,1.0,1239,
10303,116,MERSEREAU,AVE,,,,64,STATEN ISLAND,MULTIPLE DWELLING A,GARDEN COMPLEX,,,1.0,1239,
10303,117,MERSEREAU,AVE,,,,64,STATEN ISLAND,MULTIPLE DWELLING A,GARDEN COMPLEX,,,1.0,1239,
10303,118,MERSEREAU,AVE,,,,64,STATEN ISLAND,MULTIPLE DWELLING A,GARDEN COMPLEX,,,1.0,1239,
10303,119,MERSEREAU,AVE,,,,64,STATEN ISLAND,MULTIPLE DWELLING A,GARDEN COMPLEX,,,1.0,1239,
10303,120,MERSEREAU,AVE,,,,64,STATEN ISLAND,MULTIPLE DWELLING A,GARDEN COMPLEX,,,1.0,1239,
10303,121,MERSEREAU,AVE,,,,64,STATEN ISLAND,MULTIPLE DWELLING A,GARDEN COMPLEX,,,1.0,1239,
10303,122,MERSEREAU,AVE,,,,64,STATEN ISLAND,MULTIPLE DWELLING A,GARDEN COMPLEX,,,1.0,1239,
10303,123,MERSEREAU,AVE,,,,64,STATEN ISLAND,MULTIPLE DWELLING A,GARDEN COMPLEX,,,1.0,1239,
10303,40,WILLOW,RD W,,,,64,STATEN ISLAND,MULTIPLE DWELLING A,,,,237.0,1136,
10303,41,WILLOW,RD W,,,,64,STATEN ISLAND,MULTIPLE DWELLING A,,,,237.0,1136,
10303,42,WILLOW,RD W,,,,64,STATEN ISLAND,MULTIPLE DWELLING A,,,,237.0,1136,
10303,43,WILLOW,RD W,,,,64,STATEN ISLAND,MULTIPLE DWELLING A,,,,237.0,1136,
10303,44,WILLOW,RD W,,,,64,STATEN ISLAND,MULTIPLE DWELLING A,,,,237.0,1136,
10303,45,WILLOW,RD W,,,,64,STATEN ISLAND,MULTIPLE DWELLING A,,,,237.0,1136,
10303,46,WILLOW,RD W,,,,64,STATEN ISLAND,MULTIPLE DWELLING A,,,,237.0,1136,
10303,47,WILLOW,RD W,,,,64,STATEN ISLAND,MULTIPLE DWELLING A,,,,237.0,1136,
10303,48,WILLOW,RD W,,,,64,STATEN ISLAND,MULTIPLE DWELLING A,,,,237.0,1136,
10303,49,WILLOW,RD W,,,,64,STATEN ISLAND,MULTIPLE DWELLING A,,,,237.0,1136,
10303,50,WILLOW,RD W,,,,64,STATEN ISLAND,MULTIPLE DWELLING A,,,,237.0,1136,
10303,51,WILLOW,RD W,,,,64,STATEN ISLAND,MULTIPLE DWELLING A,,,,237.0,1136,
10303,52,WILLOW,RD W,,,,64,STATEN ISLAND,MULTIPLE DWELLING A,,,,237.0,1136,
10303,53,WILLOW,RD W,,,,64,STATEN ISLAND,MULTIPLE DWELLING A,,,,237.0,1136,
10303,54,WILLOW,RD W,,,,64,STATEN ISLAND,MULTIPLE DWELLING A,,,,237.0,1136,
10303,55,WILLOW,RD W,,,,64,STATEN ISLAND,MULTIPLE DWELLING A,,,,237.0,1136,
10303,56,WILLOW,RD W,,,,64,STATEN ISLAND,MULTIPLE DWELLING A,,,,237.0,1136,
10304,21,BALTIC,AVE,,,,64,STATEN ISLAND,MULTIPLE DWELLING A,,,,1.0,3151,
10304,533,BAY,ST,32.0,SANDS,ST,64,STATEN ISLAND,MULTIPLE DWELLING A,GARDEN COMPLEX,,,4.0,490,
10304,534,BAY,ST,32.0,SANDS,ST,64,STATEN ISLAND,MULTIPLE DWELLING A,GARDEN COMPLEX,,,4.0,490,
10304,535,BAY,ST,32.0,SANDS,ST,64,STATEN ISLAND,MULTIPLE DWELLING A,GARDEN COMPLEX,,,4.0,490,
10304,536,BAY,ST,32.0,SANDS,ST,64,STATEN ISLAND,MULTIPLE DWELLING A,GARDEN COMPLEX,,,4.0,490,
10304,537,BAY,ST,32.0,SANDS,ST,64,STATEN ISLAND,MULTIPLE DWELLING A,GARDEN COMPLEX,,,4.0,490,
10304,538,BAY,ST,32.0,SANDS,ST,64,STATEN ISLAND,MULTIPLE DWELLING A,GARDEN COMPLEX,,,4.0,490,
10304,539,BAY,ST,32.0,SANDS,ST,64,STATEN ISLAND,MULTIPLE DWELLING A,GARDEN COMPLEX,,,4.0,490,
10304,694,BAY,ST,,,,64,STATEN ISLAND,MULTIPLE DWELLING B,,,,43.0,528,
10304,46,BROAD,ST,,,,64,STATEN ISLAND,MULTIPLE DWELLING A,,,,22.0,529,
10304,91,BROAD,ST,,,,64,STATEN ISLAND,MULTIPLE DWELLING A,GARDEN COMPLEX,,,14.0,526,
10304,180,BROAD,ST,,,,64,STATEN ISLAND,MULTIPLE DWELLING A,,,,40.0,545,
10304,4,CHESTER,PL,,,,64,STATEN ISLAND,MULTIPLE DWELLING A,,,,45.0,579,
10304,1950,CLOVE,RD,,,,64,STATEN ISLAND,MULTIPLE DWELLING A,GARDEN COMPLEX,,,1.0,ARTICLE 11 3157,
10304,163,CROMWELL,AVE,,,,64,STATEN ISLAND,MULTIPLE DWELLING A,,,,7501.0,3318,
10304,164,CROMWELL,AVE,,,,64,STATEN ISLAND,MULTIPLE DWELLING A,,,,7501.0,3318,
10304,165,CROMWELL,AVE,,,,64,STATEN ISLAND,MULTIPLE DWELLING A,,,,7501.0,3318,
10304,166,CROMWELL,AVE,,,,64,STATEN ISLAND,MULTIPLE DWELLING A,,,,7501.0,3318,
10304,167,CROMWELL,AVE,,,,64,STATEN ISLAND,MULTIPLE DWELLING A,,,,7501.0,3318,
10304,168,CROMWELL,AVE,,,,64,STATEN ISLAND,MULTIPLE DWELLING A,,,,7501.0,3318,
10304,169,CROMWELL,AVE,,,,64,STATEN ISLAND,MULTIPLE DWELLING A,,,,7501.0,3318,
10304,180,CROMWELL,AVE,,,,64,STATEN ISLAND,MULTIPLE DWELLING A,GARDEN COMPLEX,,,42.0,3319,
10304,15,FAIRWAY,AVE,,,,64,STATEN ISLAND,MULTIPLE DWELLING A,GARDEN COMPLEX,,,1.0,2869,
10304,16,FAIRWAY,AVE,,,,64,STATEN ISLAND,MULTIPLE DWELLING A,GARDEN COMPLEX,,,1.0,2869,
10304,17,FAIRWAY,AVE,,,,64,STATEN ISLAND,MULTIPLE DWELLING A,GARDEN COMPLEX,,,1.0,2869,
10304,18,FAIRWAY,AVE,,,,64,STATEN ISLAND,MULTIPLE DWELLING A,GARDEN COMPLEX,,,1.0,2869,
10304,19,FAIRWAY,AVE,,,,64,STATEN ISLAND,MULTIPLE DWELLING A,GARDEN COMPLEX,,,1.0,2869,
10304,20,FAIRWAY,AVE,,,,64,STATEN ISLAND,MULTIPLE DWELLING A,GARDEN COMPLEX,,,1.0,2869,
10304,21,FAIRWAY,AVE,,,,64,STATEN ISLAND,MULTIPLE DWELLING A,GARDEN COMPLEX,,,1.0,2869,
10304,22,FAIRWAY,AVE,,,,64,STATEN ISLAND,MULTIPLE DWELLING A,GARDEN COMPLEX,,,1.0,2869,
10304,23,FAIRWAY,AVE,,,,64,STATEN ISLAND,MULTIPLE DWELLING A,GARDEN COMPLEX,,,1.0,2869,
10304,24,FAIRWAY,AVE,,,,64,STATEN ISLAND,MULTIPLE DWELLING A,GARDEN COMPLEX,,,1.0,2869,
10304,25,FAIRWAY,AVE,,,,64,STATEN ISLAND,MULTIPLE DWELLING A,GARDEN COMPLEX,,,1.0,2869,
10304,26,FAIRWAY,AVE,,,,64,STATEN ISLAND,MULTIPLE DWELLING A,GARDEN COMPLEX,,,1.0,2869,
10304,27,FAIRWAY,AVE,,,,64,STATEN ISLAND,MULTIPLE DWELLING A,GARDEN COMPLEX,,,1.0,2869,
10304,28,FAIRWAY,AVE,,,,64,STATEN ISLAND,MULTIPLE DWELLING A,GARDEN COMPLEX,,,1.0,2869,
10304,29,FAIRWAY,AVE,,,,64,STATEN ISLAND,MULTIPLE DWELLING A,GARDEN COMPLEX,,,1.0,2869,
10304,30,FAIRWAY,AVE,,,,64,STATEN ISLAND,MULTIPLE DWELLING A,GARDEN COMPLEX,,,1.0,2869,
10304,31,FAIRWAY,AVE,,,,64,STATEN ISLAND,MULTIPLE DWELLING A,GARDEN COMPLEX,,,1.0,2869,
10304,32,FAIRWAY,AVE,,,,64,STATEN ISLAND,MULTIPLE DWELLING A,GARDEN COMPLEX,,,1.0,2869,
10304,33,FAIRWAY,AVE,,,,64,STATEN ISLAND,MULTIPLE DWELLING A,GARDEN COMPLEX,,,1.0,2869,
10304,392,FLAGG,PL,,,,64,STATEN ISLAND,MULTIPLE DWELLING A,GARDEN COMPLEX,,,82.0,897,
10304,73,HARRISON,ST,,,,64,STATEN ISLAND,MULTIPLE DWELLING A,,,,60.0,530,
10304,10,KIMBERLY,LN,,,,64,STATEN ISLAND,MULTIPLE DWELLING A,,,,214.0,2867,
10304,30,KIMBERLY,LN,,,,64,STATEN ISLAND,MULTIPLE DWELLING A,,,,214.0,2867,
10304,50,KIMBERLY,LN,,,,64,STATEN ISLAND,MULTIPLE DWELLING A,,,,214.0,2867,
10304,70,KIMBERLY,LN,,,,64,STATEN ISLAND,MULTIPLE DWELLING A,,,,214.0,2867,
10304,75,KIMBERLY,LN,,,,64,STATEN ISLAND,MULTIPLE DWELLING A,,,,214.0,2867,
10304,51,LAUREL,AVE,,,,64,STATEN ISLAND,MULTIPLE DWELLING A,,,,140.0,563,
10304,52,LAUREL,AVE,,,,64,STATEN ISLAND,MULTIPLE DWELLING A,,,,140.0,563,
10304,53,LAUREL,AVE,,,,64,STATEN ISLAND,MULTIPLE DWELLING A,,,,140.0,563,
10304,54,LAUREL,AVE,,,,64,STATEN ISLAND,MULTIPLE DWELLING A,,,,140.0,563,
10304,55,LAUREL,AVE,,,,64,STATEN ISLAND,MULTIPLE DWELLING A,,,,140.0,563,
10304,56,LAUREL,AVE,,,,64,STATEN ISLAND,MULTIPLE DWELLING A,,,,140.0,563,
10304,57,LAUREL,AVE,,,,64,STATEN ISLAND,MULTIPLE DWELLING A,,,,140.0,563,
10304,190,N RAILROAD,AVE,,,,64,STATEN ISLAND,MULTIPLE DWELLING A,GARDEN COMPLEX,,,75.0,3197,
10304,210,N RAILROAD,AVE,,,,64,STATEN ISLAND,MULTIPLE DWELLING A,GARDEN COMPLEX,,,75.0,3197,
10304,585,N RAILROAD,AVE,,,,64,STATEN ISLAND,MULTIPLE DWELLING A,,,,61.0,3318,
10304,801,NARROWS,RD N,,,,64,STATEN ISLAND,MULTIPLE DWELLING A,,,,71.0,631,
10304,7,NAVY PIER,CT,,,,64,STATEN ISLAND,MULTIPLE DWELLING A,421-A (16),,,7501.0,487,
10304,8,NAVY PIER,CT,,,,64,STATEN ISLAND,MULTIPLE DWELLING A,421-A (16),,,7502.0,487,
10304,10,PARK HILL,AVE,,,,64,STATEN ISLAND,MULTIPLE DWELLING A,GARDEN COMPLEX,,,165.0,2869,
10304,11,PARK HILL,AVE,,,,64,STATEN ISLAND,MULTIPLE DWELLING A,GARDEN COMPLEX,,,165.0,2869,
10304,12,PARK HILL,AVE,,,,64,STATEN ISLAND,MULTIPLE DWELLING A,GARDEN COMPLEX,,,165.0,2869,
10304,13,PARK HILL,AVE,,,,64,STATEN ISLAND,MULTIPLE DWELLING A,GARDEN COMPLEX,,,165.0,2869,
10304,14,PARK HILL,AVE,,,,64,STATEN ISLAND,MULTIPLE DWELLING A,GARDEN COMPLEX,,,165.0,2869,
10304,15,PARK HILL,AVE,,,,64,STATEN ISLAND,MULTIPLE DWELLING A,GARDEN COMPLEX,,,165.0,2869,
10304,16,PARK HILL,AVE,,,,64,STATEN ISLAND,MULTIPLE DWELLING A,GARDEN COMPLEX,,,165.0,2869,
10304,17,PARK HILL,AVE,,,,64,STATEN ISLAND,MULTIPLE DWELLING A,GARDEN COMPLEX,,,165.0,2869,
10304,18,PARK HILL,AVE,,,,64,STATEN ISLAND,MULTIPLE DWELLING A,GARDEN COMPLEX,,,165.0,2869,
10304,19,PARK HILL,AVE,,,,64,STATEN ISLAND,MULTIPLE DWELLING A,GARDEN COMPLEX,,,165.0,2869,
10304,20,PARK HILL,AVE,,,,64,STATEN ISLAND,MULTIPLE DWELLING A,GARDEN COMPLEX,,,165.0,2869,
10304,21,PARK HILL,AVE,,,,64,STATEN ISLAND,MULTIPLE DWELLING A,GARDEN COMPLEX,,,165.0,2869,
10304,22,PARK HILL,AVE,,,,64,STATEN ISLAND,MULTIPLE DWELLING A,GARDEN COMPLEX,,,165.0,2869,
10304,23,PARK HILL,AVE,,,,64,STATEN ISLAND,MULTIPLE DWELLING A,GARDEN COMPLEX,,,165.0,2869,
10304,24,PARK HILL,AVE,,,,64,STATEN ISLAND,MULTIPLE DWELLING A,GARDEN COMPLEX,,,165.0,2869,
10304,25,PARK HILL,AVE,,,,64,STATEN ISLAND,MULTIPLE DWELLING A,GARDEN COMPLEX,,,165.0,2869,
10304,26,PARK HILL,AVE,,,,64,STATEN ISLAND,MULTIPLE DWELLING A,GARDEN COMPLEX,,,165.0,2869,
10304,27,PARK HILL,AVE,,,,64,STATEN ISLAND,MULTIPLE DWELLING A,GARDEN COMPLEX,,,165.0,2869,
10304,28,PARK HILL,AVE,,,,64,STATEN ISLAND,MULTIPLE DWELLING A,GARDEN COMPLEX,,,165.0,2869,
10304,29,PARK HILL,AVE,,,,64,STATEN ISLAND,MULTIPLE DWELLING A,GARDEN COMPLEX,,,165.0,2869,
10304,30,PARK HILL,AVE,,,,64,STATEN ISLAND,MULTIPLE DWELLING A,GARDEN COMPLEX,,,165.0,2869,
10304,31,PARK HILL,AVE,,,,64,STATEN ISLAND,MULTIPLE DWELLING A,GARDEN COMPLEX,,,165.0,2869,
10304,32,PARK HILL,AVE,,,,64,STATEN ISLAND,MULTIPLE DWELLING A,GARDEN COMPLEX,,,165.0,2869,
10304,33,PARK HILL,AVE,,,,64,STATEN ISLAND,MULTIPLE DWELLING A,GARDEN COMPLEX,,,165.0,2869,
10304,34,PARK HILL,AVE,,,,64,STATEN ISLAND,MULTIPLE DWELLING A,GARDEN COMPLEX,,,165.0,2869,
10304,35,PARK HILL,AVE,,,,64,STATEN ISLAND,MULTIPLE DWELLING A,GARDEN COMPLEX,,,165.0,2869,
10304,36,PARK HILL,AVE,,,,64,STATEN ISLAND,MULTIPLE DWELLING A,GARDEN COMPLEX,,,165.0,2869,
10304,37,PARK HILL,AVE,,,,64,STATEN ISLAND,MULTIPLE DWELLING A,GARDEN COMPLEX,,,165.0,2869,
10304,38,PARK HILL,AVE,,,,64,STATEN ISLAND,MULTIPLE DWELLING A,GARDEN COMPLEX,,,165.0,2869,
10304,39,PARK HILL,AVE,,,,64,STATEN ISLAND,MULTIPLE DWELLING A,GARDEN COMPLEX,,,165.0,2869,
10304,40,PARK HILL,AVE,,,,64,STATEN ISLAND,MULTIPLE DWELLING A,GARDEN COMPLEX,,,165.0,2869,
10304,41,PARK HILL,AVE,,,,64,STATEN ISLAND,MULTIPLE DWELLING A,GARDEN COMPLEX,,,165.0,2869,
10304,42,PARK HILL,AVE,,,,64,STATEN ISLAND,MULTIPLE DWELLING A,GARDEN COMPLEX,,,165.0,2869,
10304,43,PARK HILL,AVE,,,,64,STATEN ISLAND,MULTIPLE DWELLING A,GARDEN COMPLEX,,,165.0,2869,
10304,44,PARK HILL,AVE,,,,64,STATEN ISLAND,MULTIPLE DWELLING A,GARDEN COMPLEX,,,165.0,2869,
10304,45,PARK HILL,AVE,,,,64,STATEN ISLAND,MULTIPLE DWELLING A,GARDEN COMPLEX,,,165.0,2869,
10304,46,PARK HILL,AVE,,,,64,STATEN ISLAND,MULTIPLE DWELLING A,GARDEN COMPLEX,,,165.0,2869,
10304,47,PARK HILL,AVE,,,,64,STATEN ISLAND,MULTIPLE DWELLING A,GARDEN COMPLEX,,,165.0,2869,
10304,48,PARK HILL,AVE,,,,64,STATEN ISLAND,MULTIPLE DWELLING A,GARDEN COMPLEX,,,165.0,2869,
10304,49,PARK HILL,AVE,,,,64,STATEN ISLAND,MULTIPLE DWELLING A,GARDEN COMPLEX,,,165.0,2869,
10304,50,PARK HILL,AVE,,,,64,STATEN ISLAND,MULTIPLE DWELLING A,GARDEN COMPLEX,,,165.0,2869,
10304,51,PARK HILL,AVE,,,,64,STATEN ISLAND,MULTIPLE DWELLING A,GARDEN COMPLEX,,,165.0,2869,
10304,52,PARK HILL,AVE,,,,64,STATEN ISLAND,MULTIPLE DWELLING A,GARDEN COMPLEX,,,165.0,2869,
10304,53,PARK HILL,AVE,,,,64,STATEN ISLAND,MULTIPLE DWELLING A,GARDEN COMPLEX,,,165.0,2869,
10304,54,PARK HILL,AVE,,,,64,STATEN ISLAND,MULTIPLE DWELLING A,GARDEN COMPLEX,,,165.0,2869,
10304,55,PARK HILL,AVE,,,,64,STATEN ISLAND,MULTIPLE DWELLING A,GARDEN COMPLEX,,,165.0,2869,
10304,56,PARK HILL,AVE,,,,64,STATEN ISLAND,MULTIPLE DWELLING A,GARDEN COMPLEX,,,165.0,2869,
10304,57,PARK HILL,AVE,,,,64,STATEN ISLAND,MULTIPLE DWELLING A,GARDEN COMPLEX,,,165.0,2869,
10304,58,PARK HILL,AVE,,,,64,STATEN ISLAND,MULTIPLE DWELLING A,GARDEN COMPLEX,,,165.0,2869,
10304,59,PARK HILL,AVE,,,,64,STATEN ISLAND,MULTIPLE DWELLING A,GARDEN COMPLEX,,,165.0,2869,
10304,60,PARK HILL,AVE,,,,64,STATEN ISLAND,MULTIPLE DWELLING A,GARDEN COMPLEX,,,165.0,2869,
10304,61,PARK HILL,AVE,,,,64,STATEN ISLAND,MULTIPLE DWELLING A,GARDEN COMPLEX,,,165.0,2869,
10304,62,PARK HILL,AVE,,,,64,STATEN ISLAND,MULTIPLE DWELLING A,GARDEN COMPLEX,,,165.0,2869,
10304,63,PARK HILL,AVE,,,,64,STATEN ISLAND,MULTIPLE DWELLING A,GARDEN COMPLEX,,,165.0,2869,
10304,64,PARK HILL,AVE,,,,64,STATEN ISLAND,MULTIPLE DWELLING A,GARDEN COMPLEX,,,165.0,2869,
10304,65,PARK HILL,AVE,,,,64,STATEN ISLAND,MULTIPLE DWELLING A,GARDEN COMPLEX,,,165.0,2869,
10304,66,PARK HILL,AVE,,,,64,STATEN ISLAND,MULTIPLE DWELLING A,GARDEN COMPLEX,,,165.0,2869,
10304,67,PARK HILL,AVE,,,,64,STATEN ISLAND,MULTIPLE DWELLING A,GARDEN COMPLEX,,,165.0,2869,
10304,68,PARK HILL,AVE,,,,64,STATEN ISLAND,MULTIPLE DWELLING A,GARDEN COMPLEX,,,165.0,2869,
10304,30,PARK HILL,CT,,,,64,STATEN ISLAND,MULTIPLE DWELLING A,GARDEN COMPLEX,,,1.0,2869,
10304,31,PARK HILL,CT,,,,64,STATEN ISLAND,MULTIPLE DWELLING A,GARDEN COMPLEX,,,1.0,2869,
10304,32,PARK HILL,CT,,,,64,STATEN ISLAND,MULTIPLE DWELLING A,GARDEN COMPLEX,,,1.0,2869,
10304,33,PARK HILL,CT,,,,64,STATEN ISLAND,MULTIPLE DWELLING A,GARDEN COMPLEX,,,1.0,2869,
10304,34,PARK HILL,CT,,,,64,STATEN ISLAND,MULTIPLE DWELLING A,GARDEN COMPLEX,,,1.0,2869,
10304,35,PARK HILL,CT,,,,64,STATEN ISLAND,MULTIPLE DWELLING A,GARDEN COMPLEX,,,1.0,2869,
10304,36,PARK HILL,CT,,,,64,STATEN ISLAND,MULTIPLE DWELLING A,GARDEN COMPLEX,,,1.0,2869,
10304,37,PARK HILL,CT,,,,64,STATEN ISLAND,MULTIPLE DWELLING A,GARDEN COMPLEX,,,1.0,2869,
10304,38,PARK HILL,CT,,,,64,STATEN ISLAND,MULTIPLE DWELLING A,GARDEN COMPLEX,,,1.0,2869,
10304,39,PARK HILL,CT,,,,64,STATEN ISLAND,MULTIPLE DWELLING A,GARDEN COMPLEX,,,1.0,2869,
10304,40,PARK HILL,CT,,,,64,STATEN ISLAND,MULTIPLE DWELLING A,GARDEN COMPLEX,,,1.0,2869,
10304,41,PARK HILL,CT,,,,64,STATEN ISLAND,MULTIPLE DWELLING A,GARDEN COMPLEX,,,1.0,2869,
10304,42,PARK HILL,CT,,,,64,STATEN ISLAND,MULTIPLE DWELLING A,GARDEN COMPLEX,,,1.0,2869,
10304,43,PARK HILL,CT,,,,64,STATEN ISLAND,MULTIPLE DWELLING A,GARDEN COMPLEX,,,1.0,2869,
10304,44,PARK HILL,CT,,,,64,STATEN ISLAND,MULTIPLE DWELLING A,GARDEN COMPLEX,,,1.0,2869,
10304,45,PARK HILL,CT,,,,64,STATEN ISLAND,MULTIPLE DWELLING A,GARDEN COMPLEX,,,1.0,2869,
10304,46,PARK HILL,CT,,,,64,STATEN ISLAND,MULTIPLE DWELLING A,GARDEN COMPLEX,,,1.0,2869,
10304,47,PARK HILL,CT,,,,64,STATEN ISLAND,MULTIPLE DWELLING A,GARDEN COMPLEX,,,1.0,2869,
10304,48,PARK HILL,CT,,,,64,STATEN ISLAND,MULTIPLE DWELLING A,GARDEN COMPLEX,,,1.0,2869,
10304,31,PARK HILL,LN,,,,64,STATEN ISLAND,MULTIPLE DWELLING A,GARDEN COMPLEX,,,23.0,2869,
10304,32,PARK HILL,LN,,,,64,STATEN ISLAND,MULTIPLE DWELLING A,GARDEN COMPLEX,,,23.0,2869,
10304,33,PARK HILL,LN,,,,64,STATEN ISLAND,MULTIPLE DWELLING A,GARDEN COMPLEX,,,23.0,2869,
10304,34,PARK HILL,LN,,,,64,STATEN ISLAND,MULTIPLE DWELLING A,GARDEN COMPLEX,,,23.0,2869,
10304,35,PARK HILL,LN,,,,64,STATEN ISLAND,MULTIPLE DWELLING A,GARDEN COMPLEX,,,23.0,2869,
10304,36,PARK HILL,LN,,,,64,STATEN ISLAND,MULTIPLE DWELLING A,GARDEN COMPLEX,,,23.0,2869,
10304,37,PARK HILL,LN,,,,64,STATEN ISLAND,MULTIPLE DWELLING A,GARDEN COMPLEX,,,23.0,2869,
10304,38,PARK HILL,LN,,,,64,STATEN ISLAND,MULTIPLE DWELLING A,GARDEN COMPLEX,,,23.0,2869,
10304,39,PARK HILL,LN,,,,64,STATEN ISLAND,MULTIPLE DWELLING A,GARDEN COMPLEX,,,23.0,2869,
10304,40,PARK HILL,LN,,,,64,STATEN ISLAND,MULTIPLE DWELLING A,GARDEN COMPLEX,,,23.0,2869,
10304,41,PARK HILL,LN,,,,64,STATEN ISLAND,MULTIPLE DWELLING A,GARDEN COMPLEX,,,23.0,2869,
10304,42,PARK HILL,LN,,,,64,STATEN ISLAND,MULTIPLE DWELLING A,GARDEN COMPLEX,,,23.0,2869,
10304,43,PARK HILL,LN,,,,64,STATEN ISLAND,MULTIPLE DWELLING A,GARDEN COMPLEX,,,23.0,2869,
10304,44,PARK HILL,LN,,,,64,STATEN ISLAND,MULTIPLE DWELLING A,GARDEN COMPLEX,,,23.0,2869,
10304,45,PARK HILL,LN,,,,64,STATEN ISLAND,MULTIPLE DWELLING A,GARDEN COMPLEX,,,23.0,2869,
10304,46,PARK HILL,LN,,,,64,STATEN ISLAND,MULTIPLE DWELLING A,GARDEN COMPLEX,,,23.0,2869,
10304,47,PARK HILL,LN,,,,64,STATEN ISLAND,MULTIPLE DWELLING A,GARDEN COMPLEX,,,23.0,2869,
10304,48,PARK HILL,LN,,,,64,STATEN ISLAND,MULTIPLE DWELLING A,GARDEN COMPLEX,,,23.0,2869,
10304,49,PARK HILL,LN,,,,64,STATEN ISLAND,MULTIPLE DWELLING A,GARDEN COMPLEX,,,23.0,2869,
10304,141,PARK HILL,AVE,,,,64,STATEN ISLAND,MULTIPLE DWELLING A,ARTICLE 11,,,1.0,2871,
10304,32,PROSPECT,ST,,,,64,STATEN ISLAND,MULTIPLE DWELLING A,,,,11.0,491,
10304,33,PROSPECT,ST,,,,64,STATEN ISLAND,MULTIPLE DWELLING A,,,,11.0,491,
10304,34,PROSPECT,ST,,,,64,STATEN ISLAND,MULTIPLE DWELLING A,,,,11.0,491,
10304,35,PROSPECT,ST,,,,64,STATEN ISLAND,MULTIPLE DWELLING A,,,,11.0,491,
10304,36,PROSPECT,ST,,,,64,STATEN ISLAND,MULTIPLE DWELLING A,,,,11.0,491,
10304,37,PROSPECT,ST,,,,64,STATEN ISLAND,MULTIPLE DWELLING A,,,,11.0,491,
10304,38,PROSPECT,ST,,,,64,STATEN ISLAND,MULTIPLE DWELLING A,,,,11.0,491,
10304,39,PROSPECT,ST,,,,64,STATEN ISLAND,MULTIPLE DWELLING A,,,,11.0,491,
10304,40,PROSPECT,ST,,,,64,STATEN ISLAND,MULTIPLE DWELLING A,,,,11.0,491,
10304,41,PROSPECT,ST,,,,64,STATEN ISLAND,MULTIPLE DWELLING A,,,,11.0,491,
10304,42,PROSPECT,ST,,,,64,STATEN ISLAND,MULTIPLE DWELLING A,,,,11.0,491,
10304,43,PROSPECT,ST,,,,64,STATEN ISLAND,MULTIPLE DWELLING A,,,,11.0,491,
10304,44,PROSPECT,ST,,,,64,STATEN ISLAND,MULTIPLE DWELLING A,,,,11.0,491,
10304,45,PROSPECT,ST,,,,64,STATEN ISLAND,MULTIPLE DWELLING A,,,,11.0,491,
10304,46,PROSPECT,ST,,,,64,STATEN ISLAND,MULTIPLE DWELLING A,,,,11.0,491,
10304,47,PROSPECT,ST,,,,64,STATEN ISLAND,MULTIPLE DWELLING A,,,,11.0,491,
10304,48,PROSPECT,ST,,,,64,STATEN ISLAND,MULTIPLE DWELLING A,,,,11.0,491,
10304,49,PROSPECT,ST,,,,64,STATEN ISLAND,MULTIPLE DWELLING A,,,,11.0,491,
10304,50,PROSPECT,ST,,,,64,STATEN ISLAND,MULTIPLE DWELLING A,,,,11.0,491,
10304,1160,RICHMOND,RD,,,,64,STATEN ISLAND,MULTIPLE DWELLING A,NON-EVICT COOP/CONDO,,,61.0,3191,
10304,15,SANDRA,LN,,,,64,STATEN ISLAND,MULTIPLE DWELLING A,,,,214.0,2867,
10304,16,SANDRA,LN,,,,64,STATEN ISLAND,MULTIPLE DWELLING A,,,,214.0,2867,
10304,69,STARBUCK,ST,,,,64,STATEN ISLAND,MULTIPLE DWELLING A,,,,185.0,631,
10304,195,STEUBEN,ST,321.0,NECKAR,AVE,64,STATEN ISLAND,MULTIPLE DWELLING A,GARDEN COMPLEX,,,1.0,ARTICLE 11 2893,
10304,231,STEUBEN,ST,634.0,ELBE,AVE,64,STATEN ISLAND,MULTIPLE DWELLING A,GARDEN COMPLEX,,,1.0,2894,
10304,280,TARGEE,ST,,,,64,STATEN ISLAND,MULTIPLE DWELLING A,421-A (1-15),,,23.0,567,
10304,69,THOMPSON,ST,,,,64,STATEN ISLAND,MULTIPLE DWELLING B,,,,43.0,524,
10304,71,THOMPSON,ST,,,,64,STATEN ISLAND,MULTIPLE DWELLING B,421-A (1-15),,,44.0,524,
10304,50,TOWNSEND,AVE,,,,64,STATEN ISLAND,MULTIPLE DWELLING B,ROOMING HOUSE,,,64.0,2840,
10304,351,VAN DUZER,ST,,,,64,STATEN ISLAND,MULTIPLE DWELLING A,,,,61.0,513,
10304,360,VAN DUZER,ST,,,,64,STATEN ISLAND,MULTIPLE DWELLING A,421-A (16),,,36.0,515,
10304,454,VAN DUZER,ST,,,,64,STATEN ISLAND,MULTIPLE DWELLING A,,,,7.0,519,
10304,455,VAN DUZER,ST,,,,64,STATEN ISLAND,MULTIPLE DWELLING A,,,,7.0,519,
10304,456,VAN DUZER,ST,,,,64,STATEN ISLAND,MULTIPLE DWELLING A,,,,7.0,519,
10304,457,VAN DUZER,ST,,,,64,STATEN ISLAND,MULTIPLE DWELLING A,,,,7.0,519,
10304,458,VAN DUZER,ST,,,,64,STATEN ISLAND,MULTIPLE DWELLING A,,,,7.0,519,
10304,459,VAN DUZER,ST,,,,64,STATEN ISLAND,MULTIPLE DWELLING A,,,,7.0,519,
10304,460,VAN DUZER,ST,,,,64,STATEN ISLAND,MULTIPLE DWELLING A,,,,7.0,519,
10304,461,VAN DUZER,ST,,,,64,STATEN ISLAND,MULTIPLE DWELLING A,,,,7.0,519,
10304,462,VAN DUZER,ST,,,,64,STATEN ISLAND,MULTIPLE DWELLING A,,,,7.0,519,
10304,463,VAN DUZER,ST,,,,64,STATEN ISLAND,MULTIPLE DWELLING A,,,,7.0,519,
10304,464,VAN DUZER,ST,,,,64,STATEN ISLAND,MULTIPLE DWELLING A,,,,7.0,519,
10304,465,VAN DUZER,ST,,,,64,STATEN ISLAND,MULTIPLE DWELLING A,,,,7.0,519,
10304,466,VAN DUZER,ST,,,,64,STATEN ISLAND,MULTIPLE DWELLING A,,,,7.0,519,
10304,467,VAN DUZER,ST,,,,64,STATEN ISLAND,MULTIPLE DWELLING A,,,,7.0,519,
10304,468,VAN DUZER,ST,,,,64,STATEN ISLAND,MULTIPLE DWELLING A,,,,7.0,519,
10304,469,VAN DUZER,ST,,,,64,STATEN ISLAND,MULTIPLE DWELLING A,,,,7.0,519,
10304,470,VAN DUZER,ST,,,,64,STATEN ISLAND,MULTIPLE DWELLING A,,,,7.0,519,
10304,471,VAN DUZER,ST,,,,64,STATEN ISLAND,MULTIPLE DWELLING A,,,,7.0,519,
10304,472,VAN DUZER,ST,,,,64,STATEN ISLAND,MULTIPLE DWELLING A,,,,7.0,519,
10304,473,VAN DUZER,ST,,,,64,STATEN ISLAND,MULTIPLE DWELLING A,,,,7.0,519,
10304,474,VAN DUZER,ST,,,,64,STATEN ISLAND,MULTIPLE DWELLING A,,,,7.0,519,
10304,475,VAN DUZER,ST,,,,64,STATEN ISLAND,MULTIPLE DWELLING A,,,,7.0,519,
10304,476,VAN DUZER,ST,,,,64,STATEN ISLAND,MULTIPLE DWELLING A,,,,7.0,519,
10304,477,VAN DUZER,ST,,,,64,STATEN ISLAND,MULTIPLE DWELLING A,,,,7.0,519,
10304,478,VAN DUZER,ST,,,,64,STATEN ISLAND,MULTIPLE DWELLING A,,,,7.0,519,
10304,479,VAN DUZER,ST,,,,64,STATEN ISLAND,MULTIPLE DWELLING A,,,,7.0,519,
10304,480,VAN DUZER,ST,,,,64,STATEN ISLAND,MULTIPLE DWELLING A,,,,7.0,519,
10304,481,VAN DUZER,ST,,,,64,STATEN ISLAND,MULTIPLE DWELLING A,,,,7.0,519,
10304,482,VAN DUZER,ST,,,,64,STATEN ISLAND,MULTIPLE DWELLING A,,,,7.0,519,
10304,483,VAN DUZER,ST,,,,64,STATEN ISLAND,MULTIPLE DWELLING A,,,,7.0,519,
10304,484,VAN DUZER,ST,,,,64,STATEN ISLAND,MULTIPLE DWELLING A,,,,7.0,519,
10304,692,VAN DUZER,ST,,,,64,STATEN ISLAND,MULTIPLE DWELLING A,421-A (1-15),,,7501.0,NON-EVICT COOP/COND61O5,
10304,694,VAN DUZER,ST,,,,64,STATEN ISLAND,MULTIPLE DWELLING A,421-A (1-15),,,7501.0,NON-EVICT COOP/CON6D1O5,
10304,696,VAN DUZER,ST,,,,64,STATEN ISLAND,MULTIPLE DWELLING A,421-A (1-15),,,7501.0,NON-EVICT COOP/CON6D1O5,
10304,698,VAN DUZER,ST,,,,64,STATEN ISLAND,MULTIPLE DWELLING A,421-A (1-15),,,7501.0,NON-EVICT COOP/COND61O5,
10304,833,VAN DUZER,ST,,,,64,STATEN ISLAND,MULTIPLE DWELLING A,,,,6.0,636,
10304,834,VAN DUZER,ST,,,,64,STATEN ISLAND,MULTIPLE DWELLING A,,,,6.0,636,
10304,835,VAN DUZER,ST,,,,64,STATEN ISLAND,MULTIPLE DWELLING A,,,,6.0,636,
10304,166,VANDERBILT,AVE,,,,64,STATEN ISLAND,MULTIPLE DWELLING A,,,,1.0,2867,
10304,167,VANDERBILT,AVE,,,,64,STATEN ISLAND,MULTIPLE DWELLING A,,,,1.0,2867,
10304,168,VANDERBILT,AVE,,,,64,STATEN ISLAND,MULTIPLE DWELLING A,,,,1.0,2867,
10304,169,VANDERBILT,AVE,,,,64,STATEN ISLAND,MULTIPLE DWELLING A,,,,1.0,2867,
10304,170,VANDERBILT,AVE,,,,64,STATEN ISLAND,MULTIPLE DWELLING A,,,,1.0,2867,
10304,320,VANDERBILT,AVE,,,,64,STATEN ISLAND,MULTIPLE DWELLING A,ARTICLE 11,,,1.0,2871,
10304,350,VANDERBILT,AVE,,,,64,STATEN ISLAND,MULTIPLE DWELLING A,ARTICLE 11,,,1.0,2871,
10305,1331,BAY,ST,,,,64,STATEN ISLAND,MULTIPLE DWELLING A,,,,17.0,2832,
10305,465,BUEL,AVE,,,,64,STATEN ISLAND,MULTIPLE DWELLING A,GARDEN COMPLEX,,,47.0,3704,
10305,83,FATHER CAPODANNO,BLVD,,,,64,STATEN ISLAND,MULTIPLE DWELLING B,ROOMING HOUSE,,,102.0,3124,
10305,600,HYLAN,BLVD,,,,64,STATEN ISLAND,MULTIPLE DWELLING A,,,,22.0,3034,
10305,74,JACKSON,AVE,,,,64,STATEN ISLAND,MULTIPLE DWELLING A,,,,47.0,3117,
10305,515,LIBERTY,AVE,,,,64,STATEN ISLAND,MULTIPLE DWELLING A,GARDEN COMPLEX,,,71.0,421-A (1-15) 3472,
10305,541,LIBERTY,AVE,,,,64,STATEN ISLAND,MULTIPLE DWELLING A,GARDEN COMPLEX,,,57.0,421-A (1-15) 3472,
10305,543,LIBERTY,AVE,,,,64,STATEN ISLAND,MULTIPLE DWELLING A,GARDEN COMPLEX,,,56.0,421-A (1-15) 3472,
10305,101,LYMAN,AVE,,,,64,STATEN ISLAND,MULTIPLE DWELLING A,GARDEN COMPLEX,,,15.0,3071,
10305,102,LYMAN,AVE,,,,64,STATEN ISLAND,MULTIPLE DWELLING A,GARDEN COMPLEX,,,15.0,3071,
10305,103,LYMAN,AVE,,,,64,STATEN ISLAND,MULTIPLE DWELLING A,GARDEN COMPLEX,,,15.0,3071,
10305,104,LYMAN,AVE,,,,64,STATEN ISLAND,MULTIPLE DWELLING A,GARDEN COMPLEX,,,15.0,3071,
10305,105,LYMAN,AVE,,,,64,STATEN ISLAND,MULTIPLE DWELLING A,GARDEN COMPLEX,,,15.0,3071,
10305,106,LYMAN,AVE,,,,64,STATEN ISLAND,MULTIPLE DWELLING A,GARDEN COMPLEX,,,15.0,3071,
10305,107,LYMAN,AVE,,,,64,STATEN ISLAND,MULTIPLE DWELLING A,GARDEN COMPLEX,,,15.0,3071,
10305,108,LYMAN,AVE,,,,64,STATEN ISLAND,MULTIPLE DWELLING A,GARDEN COMPLEX,,,15.0,3071,
10305,109,LYMAN,AVE,,,,64,STATEN ISLAND,MULTIPLE DWELLING A,GARDEN COMPLEX,,,15.0,3071,
10305,110,LYMAN,AVE,,,,64,STATEN ISLAND,MULTIPLE DWELLING A,GARDEN COMPLEX,,,15.0,3071,
10305,111,LYMAN,AVE,,,,64,STATEN ISLAND,MULTIPLE DWELLING A,GARDEN COMPLEX,,,15.0,3071,
10305,112,LYMAN,AVE,,,,64,STATEN ISLAND,MULTIPLE DWELLING A,GARDEN COMPLEX,,,15.0,3071,
10305,113,LYMAN,AVE,,,,64,STATEN ISLAND,MULTIPLE DWELLING A,GARDEN COMPLEX,,,15.0,3071,
10305,114,LYMAN,AVE,,,,64,STATEN ISLAND,MULTIPLE DWELLING A,GARDEN COMPLEX,,,15.0,3071,
10305,115,LYMAN,AVE,,,,64,STATEN ISLAND,MULTIPLE DWELLING A,GARDEN COMPLEX,,,15.0,3071,
10305,116,LYMAN,AVE,,,,64,STATEN ISLAND,MULTIPLE DWELLING A,GARDEN COMPLEX,,,15.0,3071,
10305,117,LYMAN,AVE,,,,64,STATEN ISLAND,MULTIPLE DWELLING A,GARDEN COMPLEX,,,15.0,3071,
10305,118,LYMAN,AVE,,,,64,STATEN ISLAND,MULTIPLE DWELLING A,GARDEN COMPLEX,,,15.0,3071,
10305,119,LYMAN,AVE,,,,64,STATEN ISLAND,MULTIPLE DWELLING A,GARDEN COMPLEX,,,15.0,3071,
10305,120,LYMAN,AVE,,,,64,STATEN ISLAND,MULTIPLE DWELLING A,GARDEN COMPLEX,,,15.0,3071,
10305,121,LYMAN,AVE,,,,64,STATEN ISLAND,MULTIPLE DWELLING A,GARDEN COMPLEX,,,15.0,3071,
10305,4,MARIE,ST,,,,64,STATEN ISLAND,MULTIPLE DWELLING A,,,,11.0,3202,
10305,244,MARYLAND,AVE,,,,64,STATEN ISLAND,MULTIPLE DWELLING A,,,,33.0,2859,
10305,245,MARYLAND,AVE,,,,64,STATEN ISLAND,MULTIPLE DWELLING A,,,,33.0,2859,
10305,246,MARYLAND,AVE,,,,64,STATEN ISLAND,MULTIPLE DWELLING A,,,,33.0,2859,
10305,284,MCCLEAN,AVE,,,,64,STATEN ISLAND,MULTIPLE DWELLING A,,,,20.0,3108,
10305,20,MERLE,PL,,,,64,STATEN ISLAND,MULTIPLE DWELLING A,,,,82.0,3003,
10305,21,MERLE,PL,,,,64,STATEN ISLAND,MULTIPLE DWELLING A,,,,82.0,3003,
10305,22,MERLE,PL,,,,64,STATEN ISLAND,MULTIPLE DWELLING A,,,,82.0,3003,
10305,23,MERLE,PL,,,,64,STATEN ISLAND,MULTIPLE DWELLING A,,,,82.0,3003,
10305,24,MERLE,PL,,,,64,STATEN ISLAND,MULTIPLE DWELLING A,,,,82.0,3003,
10305,25,MERLE,PL,,,,64,STATEN ISLAND,MULTIPLE DWELLING A,,,,82.0,3003,
10305,26,MERLE,PL,,,,64,STATEN ISLAND,MULTIPLE DWELLING A,,,,82.0,3003,
10305,27,MERLE,PL,,,,64,STATEN ISLAND,MULTIPLE DWELLING A,,,,82.0,3003,
10305,28,MERLE,PL,,,,64,STATEN ISLAND,MULTIPLE DWELLING A,,,,82.0,3003,
10305,29,MERLE,PL,,,,64,STATEN ISLAND,MULTIPLE DWELLING A,,,,82.0,3003,
10305,30,MERLE,PL,,,,64,STATEN ISLAND,MULTIPLE DWELLING A,,,,82.0,3003,
10305,121,NARROWS,RD N,,,,64,STATEN ISLAND,MULTIPLE DWELLING A,,,,57.0,3030,
10305,162,SAINT MARYS,AVE,,,,64,STATEN ISLAND,MULTIPLE DWELLING A,,,,70.0,2972,
10305,163,SAINT MARYS,AVE,,,,64,STATEN ISLAND,MULTIPLE DWELLING A,,,,70.0,2972,
10305,164,SAINT MARYS,AVE,,,,64,STATEN ISLAND,MULTIPLE DWELLING A,,,,70.0,2972,
10305,165,SAINT MARYS,AVE,,,,64,STATEN ISLAND,MULTIPLE DWELLING A,,,,70.0,2972,
10305,166,SAINT MARYS,AVE,,,,64,STATEN ISLAND,MULTIPLE DWELLING A,,,,70.0,2972,
10305,217,SAND,LN,,,,64,STATEN ISLAND,MULTIPLE DWELLING A,,,,38.0,3110,
10305,55,SCARBORO,AVE,,,,64,STATEN ISLAND,MULTIPLE DWELLING A,421-A (1-15),,,127.0,2831,
10305,520,SEAVIEW,AVE,,,,64,STATEN ISLAND,MULTIPLE DWELLING A,GARDEN COMPLEX,,,29.0,421-A (1-15) 3472,
10305,522,SEAVIEW,AVE,,,,64,STATEN ISLAND,MULTIPLE DWELLING A,GARDEN COMPLEX,,,32.0,421-A (1-15) 3472,
10305,526,SEAVIEW,AVE,,,,64,STATEN ISLAND,MULTIPLE DWELLING A,GARDEN COMPLEX,,,35.0,421-A (1-15) 3472,
10305,548,SEAVIEW,AVE,,,,64,STATEN ISLAND,MULTIPLE DWELLING A,GARDEN COMPLEX,,,50.0,421-A (1-15) 3472,
10305,1081,TOMPKINS,AVE,,,,64,STATEN ISLAND,MULTIPLE DWELLING A,GARDEN COMPLEX,,,12.0,3107,
10305,1082,TOMPKINS,AVE,,,,64,STATEN ISLAND,MULTIPLE DWELLING A,GARDEN COMPLEX,,,12.0,3107,
10305,1083,TOMPKINS,AVE,,,,64,STATEN ISLAND,MULTIPLE DWELLING A,GARDEN COMPLEX,,,12.0,3107,
10305,1084,TOMPKINS,AVE,,,,64,STATEN ISLAND,MULTIPLE DWELLING A,GARDEN COMPLEX,,,12.0,3107,
10305,1085,TOMPKINS,AVE,,,,64,STATEN ISLAND,MULTIPLE DWELLING A,GARDEN COMPLEX,,,12.0,3107,
10305,1086,TOMPKINS,AVE,,,,64,STATEN ISLAND,MULTIPLE DWELLING A,GARDEN COMPLEX,,,12.0,3107,
10305,1087,TOMPKINS,AVE,,,,64,STATEN ISLAND,MULTIPLE DWELLING A,GARDEN COMPLEX,,,12.0,3107,
10305,1088,TOMPKINS,AVE,,,,64,STATEN ISLAND,MULTIPLE DWELLING A,GARDEN COMPLEX,,,12.0,3107,
10305,1089,TOMPKINS,AVE,,,,64,STATEN ISLAND,MULTIPLE DWELLING A,GARDEN COMPLEX,,,12.0,3107,
10305,1090,TOMPKINS,AVE,,,,64,STATEN ISLAND,MULTIPLE DWELLING A,GARDEN COMPLEX,,,12.0,3107,
10305,1091,TOMPKINS,AVE,,,,64,STATEN ISLAND,MULTIPLE DWELLING A,GARDEN COMPLEX,,,12.0,3107,
10305,39,WADSWORTH,AVE,,,,64,STATEN ISLAND,MULTIPLE DWELLING A,,,,111.0,3073,
10306,351,ADELAIDE,AVE,,,,64,STATEN ISLAND,MULTIPLE DWELLING A,GARDEN COMPLEX,,,73.0,4676,
10306,3044,AMBOY,RD,,,,64,STATEN ISLAND,MULTIPLE DWELLING A,,,,1.0,4655,
10306,3364,AMBOY,RD,7,BENTON,CT,64,STATEN ISLAND,MULTIPLE DWELLING A,GARDEN COMPLEX,,,16.0,5015,
10306,3365,AMBOY,RD,7,BENTON,CT,64,STATEN ISLAND,MULTIPLE DWELLING A,GARDEN COMPLEX,,,16.0,5015,
10306,3366,AMBOY,RD,7,BENTON,CT,64,STATEN ISLAND,MULTIPLE DWELLING A,GARDEN COMPLEX,,,16.0,5015,
10306,3367,AMBOY,RD,7,BENTON,CT,64,STATEN ISLAND,MULTIPLE DWELLING A,GARDEN COMPLEX,,,16.0,5015,
10306,3368,AMBOY,RD,7,BENTON,CT,64,STATEN ISLAND,MULTIPLE DWELLING A,GARDEN COMPLEX,,,16.0,5015,
10306,3369,AMBOY,RD,7,BENTON,CT,64,STATEN ISLAND,MULTIPLE DWELLING A,GARDEN COMPLEX,,,16.0,5015,
10306,3370,AMBOY,RD,7,BENTON,CT,64,STATEN ISLAND,MULTIPLE DWELLING A,GARDEN COMPLEX,,,16.0,5015,
10306,3371,AMBOY,RD,7,BENTON,CT,64,STATEN ISLAND,MULTIPLE DWELLING A,GARDEN COMPLEX,,,16.0,5015,
10306,3372,AMBOY,RD,7,BENTON,CT,64,STATEN ISLAND,MULTIPLE DWELLING A,GARDEN COMPLEX,,,16.0,5015,
10306,3373,AMBOY,RD,7,BENTON,CT,64,STATEN ISLAND,MULTIPLE DWELLING A,GARDEN COMPLEX,,,16.0,5015,
10306,3374,AMBOY,RD,7,BENTON,CT,64,STATEN ISLAND,MULTIPLE DWELLING A,GARDEN COMPLEX,,,16.0,5015,
10306,3375,AMBOY,RD,7,BENTON,CT,64,STATEN ISLAND,MULTIPLE DWELLING A,GARDEN COMPLEX,,,16.0,5015,
10306,3376,AMBOY,RD,7,BENTON,CT,64,STATEN ISLAND,MULTIPLE DWELLING A,GARDEN COMPLEX,,,16.0,5015,
10306,3377,AMBOY,RD,7,BENTON,CT,64,STATEN ISLAND,MULTIPLE DWELLING A,GARDEN COMPLEX,,,16.0,5015,
10306,3378,AMBOY,RD,7,BENTON,CT,64,STATEN ISLAND,MULTIPLE DWELLING A,GARDEN COMPLEX,,,16.0,5015,
10306,3379,AMBOY,RD,7,BENTON,CT,64,STATEN ISLAND,MULTIPLE DWELLING A,GARDEN COMPLEX,,,16.0,5015,
10306,3380,AMBOY,RD,7,BENTON,CT,64,STATEN ISLAND,MULTIPLE DWELLING A,GARDEN COMPLEX,,,16.0,5015,
10306,31-76 TO 31-84,AMBOY,RD,5 TO 11,FAIRBANKS,AVE,64,STATEN ISLAND,MULTIPLE DWELLING A,GARDEN COMPLEX,,,19.0,4698,
10306,19,BAY,TER,,,,64,STATEN ISLAND,MULTIPLE DWELLING A,GARDEN COMPLEX,,,5.0,5016,
10306,20,BAY,TER,,,,64,STATEN ISLAND,MULTIPLE DWELLING A,GARDEN COMPLEX,,,5.0,5016,
10306,21,BAY,TER,,,,64,STATEN ISLAND,MULTIPLE DWELLING A,GARDEN COMPLEX,,,5.0,5016,
10306,22,BAY,TER,,,,64,STATEN ISLAND,MULTIPLE DWELLING A,GARDEN COMPLEX,,,5.0,5016,
10306,23,BAY,TER,,,,64,STATEN ISLAND,MULTIPLE DWELLING A,GARDEN COMPLEX,,,5.0,5016,
10306,24,BAY,TER,,,,64,STATEN ISLAND,MULTIPLE DWELLING A,GARDEN COMPLEX,,,5.0,5016,
10306,25,BAY,TER,,,,64,STATEN ISLAND,MULTIPLE DWELLING A,GARDEN COMPLEX,,,5.0,5016,
10306,26,BAY,TER,,,,64,STATEN ISLAND,MULTIPLE DWELLING A,GARDEN COMPLEX,,,5.0,5016,
10306,27,BAY,TER,,,,64,STATEN ISLAND,MULTIPLE DWELLING A,GARDEN COMPLEX,,,5.0,5016,
10306,28,BAY,TER,,,,64,STATEN ISLAND,MULTIPLE DWELLING A,GARDEN COMPLEX,,,5.0,5016,
10306,29,BAY,TER,,,,64,STATEN ISLAND,MULTIPLE DWELLING A,GARDEN COMPLEX,,,5.0,5016,
10306,30,BAY,TER,,,,64,STATEN ISLAND,MULTIPLE DWELLING A,GARDEN COMPLEX,,,5.0,5016,
10306,31,BAY,TER,,,,64,STATEN ISLAND,MULTIPLE DWELLING A,GARDEN COMPLEX,,,5.0,5016,
10306,32,BAY,TER,,,,64,STATEN ISLAND,MULTIPLE DWELLING A,GARDEN COMPLEX,,,5.0,5016,
10306,33,BAY,TER,,,,64,STATEN ISLAND,MULTIPLE DWELLING A,GARDEN COMPLEX,,,5.0,5016,
10306,17,BENTON,CT,,,,64,STATEN ISLAND,MULTIPLE DWELLING A,GARDEN COMPLEX,,,16.0,5015,
10306,18,BENTON,CT,,,,64,STATEN ISLAND,MULTIPLE DWELLING A,GARDEN COMPLEX,,,16.0,5015,
10306,19,BENTON,CT,,,,64,STATEN ISLAND,MULTIPLE DWELLING A,GARDEN COMPLEX,,,16.0,5015,
10306,20,BENTON,CT,,,,64,STATEN ISLAND,MULTIPLE DWELLING A,GARDEN COMPLEX,,,16.0,5015,
10306,21,BENTON,CT,,,,64,STATEN ISLAND,MULTIPLE DWELLING A,GARDEN COMPLEX,,,16.0,5015,
10306,22,BENTON,CT,,,,64,STATEN ISLAND,MULTIPLE DWELLING A,GARDEN COMPLEX,,,16.0,5015,
10306,23,BENTON,CT,,,,64,STATEN ISLAND,MULTIPLE DWELLING A,GARDEN COMPLEX,,,16.0,5015,
10306,24,BENTON,CT,,,,64,STATEN ISLAND,MULTIPLE DWELLING A,GARDEN COMPLEX,,,16.0,5015,
10306,25,BENTON,CT,,,,64,STATEN ISLAND,MULTIPLE DWELLING A,GARDEN COMPLEX,,,16.0,5015,
10306,26,BENTON,CT,,,,64,STATEN ISLAND,MULTIPLE DWELLING A,GARDEN COMPLEX,,,16.0,5015,
10306,27,BENTON,CT,,,,64,STATEN ISLAND,MULTIPLE DWELLING A,GARDEN COMPLEX,,,16.0,5015,
10306,28,BENTON,CT,,,,64,STATEN ISLAND,MULTIPLE DWELLING A,GARDEN COMPLEX,,,16.0,5015,
10306,29,BENTON,CT,,,,64,STATEN ISLAND,MULTIPLE DWELLING A,GARDEN COMPLEX,,,16.0,5015,
10306,11,BURBANK,AVE,,,,64,STATEN ISLAND,MULTIPLE DWELLING A,GARDEN COMPLEX,,,38.0,3621,
10306,12,BURBANK,AVE,,,,64,STATEN ISLAND,MULTIPLE DWELLING A,GARDEN COMPLEX,,,38.0,3621,
10306,13,BURBANK,AVE,,,,64,STATEN ISLAND,MULTIPLE DWELLING A,GARDEN COMPLEX,,,38.0,3621,
10306,14,BURBANK,AVE,,,,64,STATEN ISLAND,MULTIPLE DWELLING A,GARDEN COMPLEX,,,38.0,3621,
10306,15,BURBANK,AVE,,,,64,STATEN ISLAND,MULTIPLE DWELLING A,GARDEN COMPLEX,,,38.0,3621,
10306,16,BURBANK,AVE,,,,64,STATEN ISLAND,MULTIPLE DWELLING A,GARDEN COMPLEX,,,38.0,3621,
10306,17,BURBANK,AVE,,,,64,STATEN ISLAND,MULTIPLE DWELLING A,GARDEN COMPLEX,,,38.0,3621,
10306,18,BURBANK,AVE,,,,64,STATEN ISLAND,MULTIPLE DWELLING A,GARDEN COMPLEX,,,38.0,3621,
10306,19,BURBANK,AVE,,,,64,STATEN ISLAND,MULTIPLE DWELLING A,GARDEN COMPLEX,,,38.0,3621,
10306,100,COLFAX,AVE,,,,64,STATEN ISLAND,MULTIPLE DWELLING A,NON-EVICT COOP/CONDO,,,7501.0,3585,
10306,26,EBBITTS,ST,,,,64,STATEN ISLAND,MULTIPLE DWELLING A,,,,65.0,3983,
10306,30,EBBITTS,ST,,,,64,STATEN ISLAND,MULTIPLE DWELLING A,,,,65.0,3983,
10306,2838,HYLAN,BLVD,425 TO 475,FALCON,AVE,64,STATEN ISLAND,MULTIPLE DWELLING A,GARDEN COMPLEX,,,1.0,4001,
10306,2839,HYLAN,BLVD,425 TO 475,FALCON,AVE,64,STATEN ISLAND,MULTIPLE DWELLING A,GARDEN COMPLEX,,,1.0,4001,
10306,2840,HYLAN,BLVD,425 TO 475,FALCON,AVE,64,STATEN ISLAND,MULTIPLE DWELLING A,GARDEN COMPLEX,,,1.0,4001,
10306,2841,HYLAN,BLVD,425 TO 475,FALCON,AVE,64,STATEN ISLAND,MULTIPLE DWELLING A,GARDEN COMPLEX,,,1.0,4001,
10306,2842,HYLAN,BLVD,425 TO 475,FALCON,AVE,64,STATEN ISLAND,MULTIPLE DWELLING A,GARDEN COMPLEX,,,1.0,4001,
10306,2843,HYLAN,BLVD,425 TO 475,FALCON,AVE,64,STATEN ISLAND,MULTIPLE DWELLING A,GARDEN COMPLEX,,,1.0,4001,
10306,2844,HYLAN,BLVD,425 TO 475,FALCON,AVE,64,STATEN ISLAND,MULTIPLE DWELLING A,GARDEN COMPLEX,,,1.0,4001,
10306,2845,HYLAN,BLVD,425 TO 475,FALCON,AVE,64,STATEN ISLAND,MULTIPLE DWELLING A,GARDEN COMPLEX,,,1.0,4001,
10306,2846,HYLAN,BLVD,425 TO 475,FALCON,AVE,64,STATEN ISLAND,MULTIPLE DWELLING A,GARDEN COMPLEX,,,1.0,4001,
10306,2847,HYLAN,BLVD,425 TO 475,FALCON,AVE,64,STATEN ISLAND,MULTIPLE DWELLING A,GARDEN COMPLEX,,,1.0,4001,
10306,2848,HYLAN,BLVD,425 TO 475,FALCON,AVE,64,STATEN ISLAND,MULTIPLE DWELLING A,GARDEN COMPLEX,,,1.0,4001,
10306,2849,HYLAN,BLVD,425 TO 475,FALCON,AVE,64,STATEN ISLAND,MULTIPLE DWELLING A,GARDEN COMPLEX,,,1.0,4001,
10306,2850,HYLAN,BLVD,425 TO 475,FALCON,AVE,64,STATEN ISLAND,MULTIPLE DWELLING A,GARDEN COMPLEX,,,1.0,4001,
10306,2851,HYLAN,BLVD,425 TO 475,FALCON,AVE,64,STATEN ISLAND,MULTIPLE DWELLING A,GARDEN COMPLEX,,,1.0,4001,
10306,2852,HYLAN,BLVD,425 TO 475,FALCON,AVE,64,STATEN ISLAND,MULTIPLE DWELLING A,GARDEN COMPLEX,,,1.0,4001,
10306,2853,HYLAN,BLVD,425 TO 475,FALCON,AVE,64,STATEN ISLAND,MULTIPLE DWELLING A,GARDEN COMPLEX,,,1.0,4001,
10306,2854,HYLAN,BLVD,425 TO 475,FALCON,AVE,64,STATEN ISLAND,MULTIPLE DWELLING A,GARDEN COMPLEX,,,1.0,4001,
10306,2855,HYLAN,BLVD,425 TO 475,FALCON,AVE,64,STATEN ISLAND,MULTIPLE DWELLING A,GARDEN COMPLEX,,,1.0,4001,
10306,2856,HYLAN,BLVD,425 TO 475,FALCON,AVE,64,STATEN ISLAND,MULTIPLE DWELLING A,GARDEN COMPLEX,,,1.0,4001,
10306,145,LINCOLN,AVE,,,,64,STATEN ISLAND,MULTIPLE DWELLING A,,,,7502.0,3585,
10306,245,MILL,RD,,,,64,STATEN ISLAND,MULTIPLE DWELLING A,,,,45.0,3983,
10306,255,MILL,RD,,,,64,STATEN ISLAND,MULTIPLE DWELLING A,,,,45.0,3983,
10306,265,MILL,RD,,,,64,STATEN ISLAND,MULTIPLE DWELLING A,,,,45.0,3983,
10306,285,MILL,RD,,,,64,STATEN ISLAND,MULTIPLE DWELLING A,,,,1.0,3983,
10306,385,OAK,AVE,,,,64,STATEN ISLAND,MULTIPLE DWELLING A,GARDEN COMPLEX,,,18.0,4000,
10306,1969,RICHMOND,RD,,,,64,STATEN ISLAND,MULTIPLE DWELLING A,,,,17.0,897,
10306,2375,RICHMOND,RD,,,,64,STATEN ISLAND,MULTIPLE DWELLING A,,,,118.0,942,
10306,2401,RICHMOND,RD,,,,64,STATEN ISLAND,MULTIPLE DWELLING A,,,,132.0,942,
10306,2402,RICHMOND,RD,,,,64,STATEN ISLAND,MULTIPLE DWELLING A,,,,132.0,942,
10306,2403,RICHMOND,RD,,,,64,STATEN ISLAND,MULTIPLE DWELLING A,,,,132.0,942,
10306,2404,RICHMOND,RD,,,,64,STATEN ISLAND,MULTIPLE DWELLING A,,,,132.0,942,
10306,2405,RICHMOND,RD,,,,64,STATEN ISLAND,MULTIPLE DWELLING A,,,,132.0,942,
10306,2406,RICHMOND,RD,,,,64,STATEN ISLAND,MULTIPLE DWELLING A,,,,132.0,942,
10306,2407,RICHMOND,RD,,,,64,STATEN ISLAND,MULTIPLE DWELLING A,,,,132.0,942,
10306,2405,RICHMOND,RD,,,,64,STATEN ISLAND,MULTIPLE DWELLING A,,,,132.0,942,
10306,184,ROSE,AVE,,,,64,STATEN ISLAND,MULTIPLE DWELLING A,GARDEN COMPLEX,,,47.0,4212,
10306,70,ROSS,AVE,,,,64,STATEN ISLAND,MULTIPLE DWELLING A,GARDEN COMPLEX,,,66.0,4206,
10306,1881,S RAILROAD,AVE,,,,64,STATEN ISLAND,MULTIPLE DWELLING A,GARDEN COMPLEX,,,21.0,4657,
10306,1882,S RAILROAD,AVE,,,,64,STATEN ISLAND,MULTIPLE DWELLING A,GARDEN COMPLEX,,,21.0,4657,
10306,1883,S RAILROAD,AVE,,,,64,STATEN ISLAND,MULTIPLE DWELLING A,GARDEN COMPLEX,,,21.0,4657,
10306,1884,S RAILROAD,AVE,,,,64,STATEN ISLAND,MULTIPLE DWELLING A,GARDEN COMPLEX,,,21.0,4657,
10306,1885,S RAILROAD,AVE,,,,64,STATEN ISLAND,MULTIPLE DWELLING A,GARDEN COMPLEX,,,21.0,4657,
10306,1886,S RAILROAD,AVE,,,,64,STATEN ISLAND,MULTIPLE DWELLING A,GARDEN COMPLEX,,,21.0,4657,
10306,1887,S RAILROAD,AVE,,,,64,STATEN ISLAND,MULTIPLE DWELLING A,GARDEN COMPLEX,,,21.0,4657,
10306,1888,S RAILROAD,AVE,,,,64,STATEN ISLAND,MULTIPLE DWELLING A,GARDEN COMPLEX,,,21.0,4657,
10306,1889,S RAILROAD,AVE,,,,64,STATEN ISLAND,MULTIPLE DWELLING A,GARDEN COMPLEX,,,21.0,4657,
10306,1890,S RAILROAD,AVE,,,,64,STATEN ISLAND,MULTIPLE DWELLING A,GARDEN COMPLEX,,,21.0,4657,
10306,1891,S RAILROAD,AVE,,,,64,STATEN ISLAND,MULTIPLE DWELLING A,GARDEN COMPLEX,,,21.0,4657,
10306,1892,S RAILROAD,AVE,,,,64,STATEN ISLAND,MULTIPLE DWELLING A,GARDEN COMPLEX,,,21.0,4657,
10306,1893,S RAILROAD,AVE,,,,64,STATEN ISLAND,MULTIPLE DWELLING A,GARDEN COMPLEX,,,21.0,4657,
10306,1894,S RAILROAD,AVE,,,,64,STATEN ISLAND,MULTIPLE DWELLING A,GARDEN COMPLEX,,,21.0,4657,
10306,1895,S RAILROAD,AVE,,,,64,STATEN ISLAND,MULTIPLE DWELLING A,GARDEN COMPLEX,,,21.0,4657,
10306,1896,S RAILROAD,AVE,,,,64,STATEN ISLAND,MULTIPLE DWELLING A,GARDEN COMPLEX,,,21.0,4657,
10306,1897,S RAILROAD,AVE,,,,64,STATEN ISLAND,MULTIPLE DWELLING A,GARDEN COMPLEX,,,21.0,4657,
10306,655,TYSENS,LN,,,,64,STATEN ISLAND,MULTIPLE DWELLING A,,,,1.0,3983,
10306,675,TYSENS,LN,,,,64,STATEN ISLAND,MULTIPLE DWELLING A,,,,1.0,3983,
10306,15,WINDEMERE,AVE,,,,64,STATEN ISLAND,MULTIPLE DWELLING A,GARDEN COMPLEX,,,36.0,4655,
10306,25,WINDEMERE,AVE,,,,64,STATEN ISLAND,MULTIPLE DWELLING A,GARDEN COMPLEX,,,70.0,4655,
10307,103,MAIN,ST,,,,64,STATEN ISLAND,MULTIPLE DWELLING A,,,8026.0,38.0,,
10307,203,MAIN,ST,,,,64,STATEN ISLAND,MULTIPLE DWELLING A,421-A (1-15),,8047.0,43.0,,
10307,239,MAIN,ST,,,,64,STATEN ISLAND,MULTIPLE DWELLING A,,,8047.0,25.0,,
10307,241,MAIN,ST,,,,64,STATEN ISLAND,MULTIPLE DWELLING A,GARDEN COMPLEX,,8047.0,23.0,,
10308,170,EXETER,ST,,,,64,STATEN ISLAND,MULTIPLE DWELLING B,GARDEN COMPLEX,,4619.0,12.0,,
10308,171,EXETER,ST,,,,64,STATEN ISLAND,MULTIPLE DWELLING B,GARDEN COMPLEX,,4619.0,12.0,,
10308,172,EXETER,ST,,,,64,STATEN ISLAND,MULTIPLE DWELLING B,GARDEN COMPLEX,,4619.0,12.0,,
10308,173,EXETER,ST,,,,64,STATEN ISLAND,MULTIPLE DWELLING B,GARDEN COMPLEX,,4619.0,12.0,,
10308,174,EXETER,ST,,,,64,STATEN ISLAND,MULTIPLE DWELLING B,GARDEN COMPLEX,,4619.0,12.0,,
10308,12,HILLCREST,AVE,,,,64,STATEN ISLAND,MULTIPLE DWELLING A,,,5250.0,16.0,,
10308,13,HILLCREST,AVE,,,,64,STATEN ISLAND,MULTIPLE DWELLING A,,,5250.0,16.0,,
10308,14,HILLCREST,AVE,,,,64,STATEN ISLAND,MULTIPLE DWELLING A,,,5250.0,16.0,,
10308,15,HILLCREST,AVE,,,,64,STATEN ISLAND,MULTIPLE DWELLING A,,,5250.0,16.0,,
10308,16,HILLCREST,AVE,,,,64,STATEN ISLAND,MULTIPLE DWELLING A,,,5250.0,16.0,,
10308,17,HILLCREST,AVE,,,,64,STATEN ISLAND,MULTIPLE DWELLING A,,,5250.0,16.0,,
10308,18,HILLCREST,AVE,,,,64,STATEN ISLAND,MULTIPLE DWELLING A,,,5250.0,16.0,,
10308,19,HILLCREST,AVE,,,,64,STATEN ISLAND,MULTIPLE DWELLING A,,,5250.0,16.0,,
10308,20,HILLCREST,AVE,,,,64,STATEN ISLAND,MULTIPLE DWELLING A,,,5250.0,16.0,,
10308,21,HILLCREST,AVE,,,,64,STATEN ISLAND,MULTIPLE DWELLING A,,,5250.0,16.0,,
10308,22,HILLCREST,AVE,,,,64,STATEN ISLAND,MULTIPLE DWELLING A,,,5250.0,16.0,,
10308,23,HILLCREST,AVE,,,,64,STATEN ISLAND,MULTIPLE DWELLING A,,,5250.0,16.0,,
10308,24,HILLCREST,AVE,,,,64,STATEN ISLAND,MULTIPLE DWELLING A,,,5250.0,16.0,,
10308,25,HILLCREST,AVE,,,,64,STATEN ISLAND,MULTIPLE DWELLING A,,,5250.0,16.0,,
10308,26,HILLCREST,AVE,,,,64,STATEN ISLAND,MULTIPLE DWELLING A,,,5250.0,16.0,,
10308,27,HILLCREST,AVE,,,,64,STATEN ISLAND,MULTIPLE DWELLING A,,,5250.0,16.0,,
10308,28,HILLCREST,AVE,,,,64,STATEN ISLAND,MULTIPLE DWELLING A,,,5250.0,16.0,,
10308,154,WIMAN,AVE,,,,64,STATEN ISLAND,MULTIPLE DWELLING A,GARDEN COMPLEX,,5306.0,23.0,,
10309,38,ANDROVETTE,ST,,,,64,STATEN ISLAND,MULTIPLE DWELLING A,,,7590.0,30.0,,
10310,102,BARD,AVE,,,,64,STATEN ISLAND,MULTIPLE DWELLING A,,,138.0,100.0,,
10310,103,BARD,AVE,,,,64,STATEN ISLAND,MULTIPLE DWELLING A,,,138.0,100.0,,
10310,104,BARD,AVE,,,,64,STATEN ISLAND,MULTIPLE DWELLING A,,,138.0,100.0,,
10310,105,BARD,AVE,,,,64,STATEN ISLAND,MULTIPLE DWELLING A,,,138.0,100.0,,
10310,106,BARD,AVE,,,,64,STATEN ISLAND,MULTIPLE DWELLING A,,,138.0,100.0,,
10310,107,BARD,AVE,,,,64,STATEN ISLAND,MULTIPLE DWELLING A,,,138.0,100.0,,
10310,108,BARD,AVE,,,,64,STATEN ISLAND,MULTIPLE DWELLING A,,,138.0,100.0,,
10310,109,BARD,AVE,,,,64,STATEN ISLAND,MULTIPLE DWELLING A,,,138.0,100.0,,
10310,110,BARD,AVE,,,,64,STATEN ISLAND,MULTIPLE DWELLING A,,,138.0,100.0,,
10310,111,BARD,AVE,,,,64,STATEN ISLAND,MULTIPLE DWELLING A,,,138.0,100.0,,
10310,112,BARD,AVE,,,,64,STATEN ISLAND,MULTIPLE DWELLING A,,,138.0,100.0,,
10310,113,BARD,AVE,,,,64,STATEN ISLAND,MULTIPLE DWELLING A,,,138.0,100.0,,
10310,114,BARD,AVE,,,,64,STATEN ISLAND,MULTIPLE DWELLING A,,,138.0,100.0,,
10310,115,BARD,AVE,,,,64,STATEN ISLAND,MULTIPLE DWELLING A,,,138.0,100.0,,
10310,116,BARD,AVE,,,,64,STATEN ISLAND,MULTIPLE DWELLING A,,,138.0,100.0,,
10310,142,BARD,AVE,,,,64,STATEN ISLAND,MULTIPLE DWELLING A,NON-EVICT COOP/CONDO,,138.0,119.0,,
10310,143,BARD,AVE,,,,64,STATEN ISLAND,MULTIPLE DWELLING A,NON-EVICT COOP/CONDO,,138.0,119.0,,
10310,144,BARD,AVE,,,,64,STATEN ISLAND,MULTIPLE DWELLING A,NON-EVICT COOP/CONDO,,138.0,119.0,,
10310,145,BARD,AVE,,,,64,STATEN ISLAND,MULTIPLE DWELLING A,NON-EVICT COOP/CONDO,,138.0,119.0,,
10310,146,BARD,AVE,,,,64,STATEN ISLAND,MULTIPLE DWELLING A,NON-EVICT COOP/CONDO,,138.0,119.0,,
10310,147,BARD,AVE,,,,64,STATEN ISLAND,MULTIPLE DWELLING A,NON-EVICT COOP/CONDO,,138.0,119.0,,
10310,148,BARD,AVE,,,,64,STATEN ISLAND,MULTIPLE DWELLING A,NON-EVICT COOP/CONDO,,138.0,119.0,,
10310,149,BARD,AVE,,,,64,STATEN ISLAND,MULTIPLE DWELLING A,NON-EVICT COOP/CONDO,,138.0,119.0,,
10310,150,BARD,AVE,,,,64,STATEN ISLAND,MULTIPLE DWELLING A,NON-EVICT COOP/CONDO,,138.0,119.0,,
10310,151,BARD,AVE,,,,64,STATEN ISLAND,MULTIPLE DWELLING A,NON-EVICT COOP/CONDO,,138.0,119.0,,
10310,152,BARD,AVE,,,,64,STATEN ISLAND,MULTIPLE DWELLING A,NON-EVICT COOP/CONDO,,138.0,119.0,,
10310,153,BARD,AVE,,,,64,STATEN ISLAND,MULTIPLE DWELLING A,NON-EVICT COOP/CONDO,,138.0,119.0,,
10310,154,BARD,AVE,,,,64,STATEN ISLAND,MULTIPLE DWELLING A,NON-EVICT COOP/CONDO,,138.0,119.0,,
10310,155,BARD,AVE,,,,64,STATEN ISLAND,MULTIPLE DWELLING A,NON-EVICT COOP/CONDO,,138.0,119.0,,
10310,156,BARD,AVE,,,,64,STATEN ISLAND,MULTIPLE DWELLING A,NON-EVICT COOP/CONDO,,138.0,119.0,,
10310,157,BARD,AVE,,,,64,STATEN ISLAND,MULTIPLE DWELLING A,NON-EVICT COOP/CONDO,,138.0,119.0,,
10310,158,BARD,AVE,,,,64,STATEN ISLAND,MULTIPLE DWELLING A,NON-EVICT COOP/CONDO,,138.0,119.0,,
10310,159,BARD,AVE,,,,64,STATEN ISLAND,MULTIPLE DWELLING A,NON-EVICT COOP/CONDO,,138.0,119.0,,
10310,160,BARD,AVE,,,,64,STATEN ISLAND,MULTIPLE DWELLING A,NON-EVICT COOP/CONDO,,138.0,119.0,,
10310,161,BARD,AVE,,,,64,STATEN ISLAND,MULTIPLE DWELLING A,NON-EVICT COOP/CONDO,,138.0,119.0,,
10310,162,BARD,AVE,,,,64,STATEN ISLAND,MULTIPLE DWELLING A,NON-EVICT COOP/CONDO,,138.0,119.0,,
10310,690,CASTLETON,AVE,,,,64,STATEN ISLAND,MULTIPLE DWELLING A,GARDEN COMPLEX,,134.0,53.0,,
10310,91,DAVIS,AVE,,,,64,STATEN ISLAND,MULTIPLE DWELLING A,,,138.0,258.0,,
10310,92,DAVIS,AVE,,,,64,STATEN ISLAND,MULTIPLE DWELLING A,,,138.0,258.0,,
10310,93,DAVIS,AVE,,,,64,STATEN ISLAND,MULTIPLE DWELLING A,,,138.0,258.0,,
10310,94,DAVIS,AVE,,,,64,STATEN ISLAND,MULTIPLE DWELLING A,,,138.0,258.0,,
10310,95,DAVIS,AVE,,,,64,STATEN ISLAND,MULTIPLE DWELLING A,,,138.0,258.0,,
10310,96,DAVIS,AVE,,,,64,STATEN ISLAND,MULTIPLE DWELLING A,,,138.0,258.0,,
10310,97,DAVIS,AVE,,,,64,STATEN ISLAND,MULTIPLE DWELLING A,,,138.0,258.0,,
10310,98,DAVIS,AVE,,,,64,STATEN ISLAND,MULTIPLE DWELLING A,,,138.0,258.0,,
10310,99,DAVIS,AVE,,,,64,STATEN ISLAND,MULTIPLE DWELLING A,,,138.0,258.0,,
10310,100,DAVIS,AVE,,,,64,STATEN ISLAND,MULTIPLE DWELLING A,,,138.0,258.0,,
10310,101,DAVIS,AVE,,,,64,STATEN ISLAND,MULTIPLE DWELLING A,,,138.0,258.0,,
10310,102,DAVIS,AVE,,,,64,STATEN ISLAND,MULTIPLE DWELLING A,,,138.0,258.0,,
10310,103,DAVIS,AVE,,,,64,STATEN ISLAND,MULTIPLE DWELLING A,,,138.0,258.0,,
10310,104,DAVIS,AVE,,,,64,STATEN ISLAND,MULTIPLE DWELLING A,,,138.0,258.0,,
10310,105,DAVIS,AVE,,,,64,STATEN ISLAND,MULTIPLE DWELLING A,,,138.0,258.0,,
10310,509,DAVIS,AVE,,,,64,STATEN ISLAND,MULTIPLE DWELLING A,GARDEN COMPLEX,,148.0,43.0,,
10310,1157,FOREST,AVE,,,,64,STATEN ISLAND,MULTIPLE DWELLING A,,,238.0,138.0,,
10310,136,GREENLEAF,AVE,,,,64,STATEN ISLAND,MULTIPLE DWELLING A,,,235.0,47.0,,
10310,137,GREENLEAF,AVE,,,,64,STATEN ISLAND,MULTIPLE DWELLING A,,,235.0,47.0,,
10310,138,GREENLEAF,AVE,,,,64,STATEN ISLAND,MULTIPLE DWELLING A,,,235.0,47.0,,
10310,139,GREENLEAF,AVE,,,,64,STATEN ISLAND,MULTIPLE DWELLING A,,,235.0,47.0,,
10310,140,GREENLEAF,AVE,,,,64,STATEN ISLAND,MULTIPLE DWELLING A,,,235.0,47.0,,
10310,15,MARKHAM,LN,,,,64,STATEN ISLAND,MULTIPLE DWELLING A,GARDEN COMPLEX,421-A (1-15),169.0,1.0,,
10310,26,MARKHAM,LN,,,,64,STATEN ISLAND,MULTIPLE DWELLING A,GARDEN COMPLEX,421-A (1-15),169.0,1.0,,
10310,31,MARKHAM,LN,,,,64,STATEN ISLAND,MULTIPLE DWELLING A,GARDEN COMPLEX,421-A (1-15),169.0,1.0,,
10310,32,MARKHAM,LN,,,,64,STATEN ISLAND,MULTIPLE DWELLING A,GARDEN COMPLEX,421-A (1-15),169.0,1.0,,
10310,39,MARKHAM,LN,,,,64,STATEN ISLAND,MULTIPLE DWELLING A,GARDEN COMPLEX,421-A (1-15),169.0,1.0,,
10310,47,MARKHAM,LN,,,,64,STATEN ISLAND,MULTIPLE DWELLING A,GARDEN COMPLEX,421-A (1-15),169.0,1.0,,
10310,51,MARKHAM,LN,,,,64,STATEN ISLAND,MULTIPLE DWELLING A,GARDEN COMPLEX,421-A (1-15),169.0,1.0,,
10310,52,MARKHAM,LN,,,,64,STATEN ISLAND,MULTIPLE DWELLING A,GARDEN COMPLEX,421-A (1-15),169.0,1.0,,
10310,79,MUNDY,AVE,168 TO 170,EGBERT,AVE,64,STATEN ISLAND,MULTIPLE DWELLING A,,,355.0,214.0,,
10310,91,MUNDY,AVE,99 TO 101,RAVENHURST,AVE,64,STATEN ISLAND,MULTIPLE DWELLING A,GARDEN COMPLEX,,355.0,52.0,,
10310,92,MUNDY,AVE,105 TO 107,RAVENHURST,AVE,64,STATEN ISLAND,MULTIPLE DWELLING A,GARDEN COMPLEX,,355.0,58.0,,
10310,286,MYRTLE,AVE,,,,64,STATEN ISLAND,MULTIPLE DWELLING A,,,225.0,7.0,,
10310,287,MYRTLE,AVE,,,,64,STATEN ISLAND,MULTIPLE DWELLING A,,,225.0,7.0,,
10310,288,MYRTLE,AVE,,,,64,STATEN ISLAND,MULTIPLE DWELLING A,,,225.0,7.0,,
10310,289,MYRTLE,AVE,,,,64,STATEN ISLAND,MULTIPLE DWELLING A,,,225.0,7.0,,
10310,290,MYRTLE,AVE,,,,64,STATEN ISLAND,MULTIPLE DWELLING A,,,225.0,7.0,,
10310,40,N BURGHER,AVE,,,,64,STATEN ISLAND,MULTIPLE DWELLING A,GARDEN COMPLEX,421-A (1-15),169.0,1.0,,
10310,41,N BURGHER,AVE,,,,64,STATEN ISLAND,MULTIPLE DWELLING A,GARDEN COMPLEX,421-A (1-15),169.0,1.0,,
10310,42,N BURGHER,AVE,,,,64,STATEN ISLAND,MULTIPLE DWELLING A,GARDEN COMPLEX,421-A (1-15),169.0,1.0,,
10310,43,N BURGHER,AVE,,,,64,STATEN ISLAND,MULTIPLE DWELLING A,GARDEN COMPLEX,421-A (1-15),169.0,1.0,,
10310,44,N BURGHER,AVE,,,,64,STATEN ISLAND,MULTIPLE DWELLING A,GARDEN COMPLEX,421-A (1-15),169.0,1.0,,
10310,45,N BURGHER,AVE,,,,64,STATEN ISLAND,MULTIPLE DWELLING A,GARDEN COMPLEX,421-A (1-15),169.0,1.0,,
10310,46,N BURGHER,AVE,,,,64,STATEN ISLAND,MULTIPLE DWELLING A,GARDEN COMPLEX,421-A (1-15),169.0,1.0,,
10310,47,N BURGHER,AVE,,,,64,STATEN ISLAND,MULTIPLE DWELLING A,GARDEN COMPLEX,421-A (1-15),169.0,1.0,,
10310,48,N BURGHER,AVE,,,,64,STATEN ISLAND,MULTIPLE DWELLING A,GARDEN COMPLEX,421-A (1-15),169.0,1.0,,
10310,49,N BURGHER,AVE,,,,64,STATEN ISLAND,MULTIPLE DWELLING A,GARDEN COMPLEX,421-A (1-15),169.0,1.0,,
10310,50,N BURGHER,AVE,,,,64,STATEN ISLAND,MULTIPLE DWELLING A,GARDEN COMPLEX,421-A (1-15),169.0,1.0,,
10310,51,N BURGHER,AVE,,,,64,STATEN ISLAND,MULTIPLE DWELLING A,GARDEN COMPLEX,421-A (1-15),169.0,1.0,,
10310,52,N BURGHER,AVE,,,,64,STATEN ISLAND,MULTIPLE DWELLING A,GARDEN COMPLEX,421-A (1-15),169.0,1.0,,
10310,53,N BURGHER,AVE,,,,64,STATEN ISLAND,MULTIPLE DWELLING A,GARDEN COMPLEX,421-A (1-15),169.0,1.0,,
10310,54,N BURGHER,AVE,,,,64,STATEN ISLAND,MULTIPLE DWELLING A,GARDEN COMPLEX,421-A (1-15),169.0,1.0,,
10310,55,N BURGHER,AVE,,,,64,STATEN ISLAND,MULTIPLE DWELLING A,GARDEN COMPLEX,421-A (1-15),169.0,1.0,,
10310,56,N BURGHER,AVE,,,,64,STATEN ISLAND,MULTIPLE DWELLING A,GARDEN COMPLEX,421-A (1-15),169.0,1.0,,
10310,57,N BURGHER,AVE,,,,64,STATEN ISLAND,MULTIPLE DWELLING A,GARDEN COMPLEX,421-A (1-15),169.0,1.0,,
10310,58,N BURGHER,AVE,,,,64,STATEN ISLAND,MULTIPLE DWELLING A,GARDEN COMPLEX,421-A (1-15),169.0,1.0,,
10310,60,N BURGHER,AVE,,,,64,STATEN ISLAND,MULTIPLE DWELLING A,GARDEN COMPLEX,421-A (1-15),169.0,1.0,,
10310,80,N BURGHER,AVE,,,,64,STATEN ISLAND,MULTIPLE DWELLING A,GARDEN COMPLEX,421-A (1-15),169.0,1.0,,
10310,94,N BURGHER,AVE,,,,64,STATEN ISLAND,MULTIPLE DWELLING A,GARDEN COMPLEX,421-A (1-15),169.0,1.0,,
10310,95,N BURGHER,AVE,,,,64,STATEN ISLAND,MULTIPLE DWELLING A,GARDEN COMPLEX,421-A (1-15),169.0,1.0,,
10310,96,N BURGHER,AVE,,,,64,STATEN ISLAND,MULTIPLE DWELLING A,GARDEN COMPLEX,421-A (1-15),169.0,1.0,,
10310,97,N BURGHER,AVE,,,,64,STATEN ISLAND,MULTIPLE DWELLING A,GARDEN COMPLEX,421-A (1-15),169.0,1.0,,
10310,98,N BURGHER,AVE,,,,64,STATEN ISLAND,MULTIPLE DWELLING A,GARDEN COMPLEX,421-A (1-15),169.0,1.0,,
10310,99,N BURGHER,AVE,,,,64,STATEN ISLAND,MULTIPLE DWELLING A,GARDEN COMPLEX,421-A (1-15),169.0,1.0,,
10310,100,N BURGHER,AVE,,,,64,STATEN ISLAND,MULTIPLE DWELLING A,GARDEN COMPLEX,421-A (1-15),169.0,1.0,,
10310,101,N BURGHER,AVE,,,,64,STATEN ISLAND,MULTIPLE DWELLING A,GARDEN COMPLEX,421-A (1-15),169.0,1.0,,
10310,102,N BURGHER,AVE,,,,64,STATEN ISLAND,MULTIPLE DWELLING A,GARDEN COMPLEX,421-A (1-15),169.0,1.0,,
10310,103,N BURGHER,AVE,,,,64,STATEN ISLAND,MULTIPLE DWELLING A,GARDEN COMPLEX,421-A (1-15),169.0,1.0,,
10310,104,N BURGHER,AVE,,,,64,STATEN ISLAND,MULTIPLE DWELLING A,GARDEN COMPLEX,421-A (1-15),169.0,1.0,,
10310,105,N BURGHER,AVE,,,,64,STATEN ISLAND,MULTIPLE DWELLING A,GARDEN COMPLEX,421-A (1-15),169.0,1.0,,
10310,106,N BURGHER,AVE,,,,64,STATEN ISLAND,MULTIPLE DWELLING A,GARDEN COMPLEX,421-A (1-15),169.0,1.0,,
10310,107,N BURGHER,AVE,,,,64,STATEN ISLAND,MULTIPLE DWELLING A,GARDEN COMPLEX,421-A (1-15),169.0,1.0,,
10310,108,N BURGHER,AVE,,,,64,STATEN ISLAND,MULTIPLE DWELLING A,GARDEN COMPLEX,421-A (1-15),169.0,1.0,,
10310,109,N BURGHER,AVE,,,,64,STATEN ISLAND,MULTIPLE DWELLING A,GARDEN COMPLEX,421-A (1-15),169.0,1.0,,
10310,110,N BURGHER,AVE,,,,64,STATEN ISLAND,MULTIPLE DWELLING A,GARDEN COMPLEX,421-A (1-15),169.0,1.0,,
10310,111,N BURGHER,AVE,,,,64,STATEN ISLAND,MULTIPLE DWELLING A,GARDEN COMPLEX,421-A (1-15),169.0,1.0,,
10310,112,N BURGHER,AVE,,,,64,STATEN ISLAND,MULTIPLE DWELLING A,GARDEN COMPLEX,421-A (1-15),169.0,1.0,,
10310,113,N BURGHER,AVE,,,,64,STATEN ISLAND,MULTIPLE DWELLING A,GARDEN COMPLEX,421-A (1-15),169.0,1.0,,
10310,114,N BURGHER,AVE,,,,64,STATEN ISLAND,MULTIPLE DWELLING A,GARDEN COMPLEX,421-A (1-15),169.0,1.0,,
10310,115,N BURGHER,AVE,,,,64,STATEN ISLAND,MULTIPLE DWELLING A,GARDEN COMPLEX,421-A (1-15),169.0,1.0,,
10310,116,N BURGHER,AVE,,,,64,STATEN ISLAND,MULTIPLE DWELLING A,GARDEN COMPLEX,421-A (1-15),169.0,1.0,,
10310,117,N BURGHER,AVE,,,,64,STATEN ISLAND,MULTIPLE DWELLING A,GARDEN COMPLEX,421-A (1-15),169.0,1.0,,
10310,118,N BURGHER,AVE,,,,64,STATEN ISLAND,MULTIPLE DWELLING A,GARDEN COMPLEX,421-A (1-15),169.0,1.0,,
10310,119,N BURGHER,AVE,,,,64,STATEN ISLAND,MULTIPLE DWELLING A,GARDEN COMPLEX,421-A (1-15),169.0,1.0,,
10310,120,N BURGHER,AVE,,,,64,STATEN ISLAND,MULTIPLE DWELLING A,GARDEN COMPLEX,421-A (1-15),169.0,1.0,,
10310,121,N BURGHER,AVE,,,,64,STATEN ISLAND,MULTIPLE DWELLING A,GARDEN COMPLEX,421-A (1-15),169.0,1.0,,
10310,122,N BURGHER,AVE,,,,64,STATEN ISLAND,MULTIPLE DWELLING A,GARDEN COMPLEX,421-A (1-15),169.0,1.0,,
10310,123,N BURGHER,AVE,,,,64,STATEN ISLAND,MULTIPLE DWELLING A,GARDEN COMPLEX,421-A (1-15),169.0,1.0,,
10310,124,N BURGHER,AVE,,,,64,STATEN ISLAND,MULTIPLE DWELLING A,GARDEN COMPLEX,421-A (1-15),169.0,1.0,,
10310,832,POST,AVE,,,,64,STATEN ISLAND,MULTIPLE DWELLING A,GARDEN COMPLEX,,236.0,27.0,,
10310,170,RAVENHURST,AVE,,,,64,STATEN ISLAND,MULTIPLE DWELLING A,,,356.0,312.0,,
10310,1470,RICHMOND,TER,,,,64,STATEN ISLAND,MULTIPLE DWELLING A,GARDEN COMPLEX,,169.0,1.0,,
10310,1471,RICHMOND,TER,,,,64,STATEN ISLAND,MULTIPLE DWELLING A,GARDEN COMPLEX,,169.0,1.0,,
10310,1472,RICHMOND,TER,,,,64,STATEN ISLAND,MULTIPLE DWELLING A,GARDEN COMPLEX,,169.0,1.0,,
10310,15,SKINNER,LN,,,,64,STATEN ISLAND,MULTIPLE DWELLING A,GARDEN COMPLEX,421-A (1-15),169.0,1.0,,
10310,18,SKINNER,LN,,,,64,STATEN ISLAND,MULTIPLE DWELLING A,GARDEN COMPLEX,421-A (1-15),169.0,1.0,,
10310,24,SKINNER,LN,,,,64,STATEN ISLAND,MULTIPLE DWELLING A,GARDEN COMPLEX,421-A (1-15),169.0,1.0,,
10310,25,SKINNER,LN,,,,64,STATEN ISLAND,MULTIPLE DWELLING A,GARDEN COMPLEX,421-A (1-15),169.0,1.0,,
10310,32,SKINNER,LN,,,,64,STATEN ISLAND,MULTIPLE DWELLING A,GARDEN COMPLEX,421-A (1-15),169.0,1.0,,
10310,40,SKINNER,LN,,,,64,STATEN ISLAND,MULTIPLE DWELLING A,GARDEN COMPLEX,421-A (1-15),169.0,1.0,,
10310,45,SKINNER,LN,,,,64,STATEN ISLAND,MULTIPLE DWELLING A,GARDEN COMPLEX,,169.0,1.0,,
10310,46,SKINNER,LN,,,,64,STATEN ISLAND,MULTIPLE DWELLING A,GARDEN COMPLEX,,169.0,1.0,,
10310,98,TAYLOR,ST,,,,64,STATEN ISLAND,MULTIPLE DWELLING A,,,199.0,59.0,,
10310,11,WAYNE,ST,,,,64,STATEN ISLAND,MULTIPLE DWELLING A,GARDEN COMPLEX,421-A (1-15),169.0,1.0,,
10310,25,WAYNE,ST,,,,64,STATEN ISLAND,MULTIPLE DWELLING A,GARDEN COMPLEX,421-A (1-15),169.0,1.0,,
10310,41,WAYNE,ST,,,,64,STATEN ISLAND,MULTIPLE DWELLING A,GARDEN COMPLEX,,169.0,1.0,,
10314,175,ARDMORE,AVE,,,,64,STATEN ISLAND,MULTIPLE DWELLING A,GARDEN COMPLEX,,783.0,21.0,,
10314,176,ARDMORE,AVE,,,,64,STATEN ISLAND,MULTIPLE DWELLING A,GARDEN COMPLEX,,783.0,21.0,,
10314,177,ARDMORE,AVE,,,,64,STATEN ISLAND,MULTIPLE DWELLING A,GARDEN COMPLEX,,783.0,21.0,,
10314,178,ARDMORE,AVE,,,,64,STATEN ISLAND,MULTIPLE DWELLING A,GARDEN COMPLEX,,783.0,21.0,,
10314,179,ARDMORE,AVE,,,,64,STATEN ISLAND,MULTIPLE DWELLING A,GARDEN COMPLEX,,783.0,21.0,,
10314,460C,BRIELLE,AVE,,,,64,STATEN ISLAND,MULTIPLE DWELLING A,GARDEN COMPLEX,J-51,955.0,75.0,,
10314,460N,BRIELLE,AVE,,,,64,STATEN ISLAND,MULTIPLE DWELLING A,GARDEN COMPLEX,J-51,955.0,75.0,,
10314,5,DEPPE,PL,,,,64,STATEN ISLAND,MULTIPLE DWELLING A,GARDEN COMPLEX,,1494.0,50.0,,
10314,6,DEPPE,PL,,,,64,STATEN ISLAND,MULTIPLE DWELLING A,GARDEN COMPLEX,,1494.0,50.0,,
10314,7,DEPPE,PL,,,,64,STATEN ISLAND,MULTIPLE DWELLING A,GARDEN COMPLEX,,1494.0,50.0,,
10314,8,DEPPE,PL,,,,64,STATEN ISLAND,MULTIPLE DWELLING A,GARDEN COMPLEX,,1494.0,50.0,,
10314,9,DEPPE,PL,,,,64,STATEN ISLAND,MULTIPLE DWELLING A,GARDEN COMPLEX,,1494.0,50.0,,
10314,15,DEPPE,PL,,,,64,STATEN ISLAND,MULTIPLE DWELLING A,GARDEN COMPLEX,,1494.0,50.0,,
10314,16,DEPPE,PL,,,,64,STATEN ISLAND,MULTIPLE DWELLING A,GARDEN COMPLEX,,1494.0,50.0,,
10314,17,DEPPE,PL,,,,64,STATEN ISLAND,MULTIPLE DWELLING A,GARDEN COMPLEX,,1494.0,50.0,,
10314,18,DEPPE,PL,,,,64,STATEN ISLAND,MULTIPLE DWELLING A,GARDEN COMPLEX,,1494.0,50.0,,
10314,19,DEPPE,PL,,,,64,STATEN ISLAND,MULTIPLE DWELLING A,GARDEN COMPLEX,,1494.0,50.0,,
10314,25,DEPPE,PL,,,,64,STATEN ISLAND,MULTIPLE DWELLING A,GARDEN COMPLEX,,1494.0,50.0,,
10314,26,DEPPE,PL,,,,64,STATEN ISLAND,MULTIPLE DWELLING A,GARDEN COMPLEX,,1494.0,50.0,,
10314,27,DEPPE,PL,,,,64,STATEN ISLAND,MULTIPLE DWELLING A,GARDEN COMPLEX,,1494.0,50.0,,
10314,28,DEPPE,PL,,,,64,STATEN ISLAND,MULTIPLE DWELLING A,GARDEN COMPLEX,,1494.0,50.0,,
10314,29,DEPPE,PL,,,,64,STATEN ISLAND,MULTIPLE DWELLING A,GARDEN COMPLEX,,1494.0,50.0,,
10314,35,DEPPE,PL,,,,64,STATEN ISLAND,MULTIPLE DWELLING A,GARDEN COMPLEX,,1494.0,50.0,,
10314,36,DEPPE,PL,,,,64,STATEN ISLAND,MULTIPLE DWELLING A,GARDEN COMPLEX,,1494.0,50.0,,
10314,37,DEPPE,PL,,,,64,STATEN ISLAND,MULTIPLE DWELLING A,GARDEN COMPLEX,,1494.0,50.0,,
10314,38,DEPPE,PL,,,,64,STATEN ISLAND,MULTIPLE DWELLING A,GARDEN COMPLEX,,1494.0,50.0,,
10314,39,DEPPE,PL,,,,64,STATEN ISLAND,MULTIPLE DWELLING A,GARDEN COMPLEX,,1494.0,50.0,,
10314,50,ELIAS,PL,,,,64,STATEN ISLAND,MULTIPLE DWELLING A,421-A (1-15),,356.0,500.0,,
10314,105,FREEDOM,AVE,,,,64,STATEN ISLAND,MULTIPLE DWELLING A,,,2102.0,45.0,,
10314,106,FREEDOM,AVE,,,,64,STATEN ISLAND,MULTIPLE DWELLING A,,,2102.0,45.0,,
10314,107,FREEDOM,AVE,,,,64,STATEN ISLAND,MULTIPLE DWELLING A,,,2102.0,45.0,,
10314,108,FREEDOM,AVE,,,,64,STATEN ISLAND,MULTIPLE DWELLING A,,,2102.0,45.0,,
10314,109,FREEDOM,AVE,,,,64,STATEN ISLAND,MULTIPLE DWELLING A,,,2102.0,45.0,,
10314,110,FREEDOM,AVE,,,,64,STATEN ISLAND,MULTIPLE DWELLING A,,,2102.0,45.0,,
10314,111,FREEDOM,AVE,,,,64,STATEN ISLAND,MULTIPLE DWELLING A,,,2102.0,45.0,,
10314,112,FREEDOM,AVE,,,,64,STATEN ISLAND,MULTIPLE DWELLING A,,,2102.0,45.0,,
10314,113,FREEDOM,AVE,,,,64,STATEN ISLAND,MULTIPLE DWELLING A,,,2102.0,45.0,,
10314,114,FREEDOM,AVE,,,,64,STATEN ISLAND,MULTIPLE DWELLING A,,,2102.0,45.0,,
10314,115,FREEDOM,AVE,,,,64,STATEN ISLAND,MULTIPLE DWELLING A,,,2102.0,45.0,,
10314,116,FREEDOM,AVE,,,,64,STATEN ISLAND,MULTIPLE DWELLING A,,,2102.0,45.0,,
10314,117,FREEDOM,AVE,,,,64,STATEN ISLAND,MULTIPLE DWELLING A,,,2102.0,45.0,,
10314,118,FREEDOM,AVE,,,,64,STATEN ISLAND,MULTIPLE DWELLING A,,,2102.0,45.0,,
10314,119,FREEDOM,AVE,,,,64,STATEN ISLAND,MULTIPLE DWELLING A,,,2102.0,45.0,,
10314,120,FREEDOM,AVE,,,,64,STATEN ISLAND,MULTIPLE DWELLING A,,,2102.0,45.0,,
10314,121,FREEDOM,AVE,,,,64,STATEN ISLAND,MULTIPLE DWELLING A,,,2102.0,45.0,,
10314,122,FREEDOM,AVE,,,,64,STATEN ISLAND,MULTIPLE DWELLING A,,,2102.0,45.0,,
10314,123,FREEDOM,AVE,,,,64,STATEN ISLAND,MULTIPLE DWELLING A,,,2102.0,45.0,,
10314,124,FREEDOM,AVE,,,,64,STATEN ISLAND,MULTIPLE DWELLING A,,,2102.0,45.0,,
10314,125,FREEDOM,AVE,,,,64,STATEN ISLAND,MULTIPLE DWELLING A,,,2102.0,45.0,,
10314,126,FREEDOM,AVE,,,,64,STATEN ISLAND,MULTIPLE DWELLING A,,,2102.0,45.0,,
10314,127,FREEDOM,AVE,,,,64,STATEN ISLAND,MULTIPLE DWELLING A,,,2102.0,45.0,,
10314,128,FREEDOM,AVE,,,,64,STATEN ISLAND,MULTIPLE DWELLING A,,,2102.0,45.0,,
10314,129,FREEDOM,AVE,,,,64,STATEN ISLAND,MULTIPLE DWELLING A,,,2102.0,45.0,,
10314,130,FREEDOM,AVE,,,,64,STATEN ISLAND,MULTIPLE DWELLING A,,,2102.0,45.0,,
10314,131,FREEDOM,AVE,,,,64,STATEN ISLAND,MULTIPLE DWELLING A,,,2102.0,45.0,,
10314,155,FRIENDSHIP,LN,,,,64,STATEN ISLAND,MULTIPLE DWELLING A,,,955.0,220.0,,
10314,156,FRIENDSHIP,LN,,,,64,STATEN ISLAND,MULTIPLE DWELLING A,,,955.0,220.0,,
10314,157,FRIENDSHIP,LN,,,,64,STATEN ISLAND,MULTIPLE DWELLING A,,,955.0,220.0,,
10314,158,FRIENDSHIP,LN,,,,64,STATEN ISLAND,MULTIPLE DWELLING A,,,955.0,220.0,,
10314,159,FRIENDSHIP,LN,,,,64,STATEN ISLAND,MULTIPLE DWELLING A,,,955.0,220.0,,
10314,160,FRIENDSHIP,LN,,,,64,STATEN ISLAND,MULTIPLE DWELLING A,,,955.0,220.0,,
10314,161,FRIENDSHIP,LN,,,,64,STATEN ISLAND,MULTIPLE DWELLING A,,,955.0,220.0,,
10314,162,FRIENDSHIP,LN,,,,64,STATEN ISLAND,MULTIPLE DWELLING A,,,955.0,220.0,,
10314,163,FRIENDSHIP,LN,,,,64,STATEN ISLAND,MULTIPLE DWELLING A,,,955.0,220.0,,
10314,164,FRIENDSHIP,LN,,,,64,STATEN ISLAND,MULTIPLE DWELLING A,,,955.0,220.0,,
10314,165,FRIENDSHIP,LN,,,,64,STATEN ISLAND,MULTIPLE DWELLING A,,,955.0,220.0,,
10314,166,FRIENDSHIP,LN,,,,64,STATEN ISLAND,MULTIPLE DWELLING A,,,955.0,220.0,,
10314,167,FRIENDSHIP,LN,,,,64,STATEN ISLAND,MULTIPLE DWELLING A,,,955.0,220.0,,
10314,168,FRIENDSHIP,LN,,,,64,STATEN ISLAND,MULTIPLE DWELLING A,,,955.0,220.0,,
10314,169,FRIENDSHIP,LN,,,,64,STATEN ISLAND,MULTIPLE DWELLING A,,,955.0,220.0,,
10314,170,FRIENDSHIP,LN,,,,64,STATEN ISLAND,MULTIPLE DWELLING A,,,955.0,220.0,,
10314,171,FRIENDSHIP,LN,,,,64,STATEN ISLAND,MULTIPLE DWELLING A,,,955.0,220.0,,
10314,172,FRIENDSHIP,LN,,,,64,STATEN ISLAND,MULTIPLE DWELLING A,,,955.0,220.0,,
10314,173,FRIENDSHIP,LN,,,,64,STATEN ISLAND,MULTIPLE DWELLING A,,,955.0,220.0,,
10314,174,FRIENDSHIP,LN,,,,64,STATEN ISLAND,MULTIPLE DWELLING A,,,955.0,220.0,,
10314,175,FRIENDSHIP,LN,,,,64,STATEN ISLAND,MULTIPLE DWELLING A,,,955.0,220.0,,
10314,1279,RICHMOND,AVE,,,,64,STATEN ISLAND,MULTIPLE DWELLING A,GARDEN COMPLEX,,1498.0,29.0,,
10314,1290,RICHMOND,AVE,,,,64,STATEN ISLAND,MULTIPLE DWELLING A,,,1644.0,74.0,,
10314,849,ROCKLAND,AVE,,,,64,STATEN ISLAND,MULTIPLE DWELLING A,,,1965.0,40.0,,
10314,17,SHERADEN,AVE,,,,64,STATEN ISLAND,MULTIPLE DWELLING A,GARDEN COMPLEX,,736.0,17.0,,
10314,18,SHERADEN,AVE,,,,64,STATEN ISLAND,MULTIPLE DWELLING A,GARDEN COMPLEX,,736.0,17.0,,
10314,19,SHERADEN,AVE,,,,64,STATEN ISLAND,MULTIPLE DWELLING A,GARDEN COMPLEX,,736.0,17.0,,
10314,20,SHERADEN,AVE,,,,64,STATEN ISLAND,MULTIPLE DWELLING A,GARDEN COMPLEX,,736.0,17.0,,
10314,21,SHERADEN,AVE,,,,64,STATEN ISLAND,MULTIPLE DWELLING A,GARDEN COMPLEX,,736.0,17.0,,
10314,22,SHERADEN,AVE,,,,64,STATEN ISLAND,MULTIPLE DWELLING A,GARDEN COMPLEX,,736.0,17.0,,
10314,23,SHERADEN,AVE,,,,64,STATEN ISLAND,MULTIPLE DWELLING A,GARDEN COMPLEX,,736.0,17.0,,
10314,24,SHERADEN,AVE,,,,64,STATEN ISLAND,MULTIPLE DWELLING A,GARDEN COMPLEX,,736.0,17.0,,
10314,25,SHERADEN,AVE,,,,64,STATEN ISLAND,MULTIPLE DWELLING A,GARDEN COMPLEX,,736.0,17.0,,
10314,3220,VICTORY,BLVD,,,,64,STATEN ISLAND,MULTIPLE DWELLING A,GARDEN COMPLEX,,2148.0,18.0,,
10314,3221,VICTORY,BLVD,,,,64,STATEN ISLAND,MULTIPLE DWELLING A,GARDEN COMPLEX,,2148.0,18.0,,
10314,3222,VICTORY,BLVD,,,,64,STATEN ISLAND,MULTIPLE DWELLING A,GARDEN COMPLEX,,2148.0,18.0,,
10314,3223,VICTORY,BLVD,,,,64,STATEN ISLAND,MULTIPLE DWELLING A,GARDEN COMPLEX,,2148.0,18.0,,
10314,3224,VICTORY,BLVD,,,,64,STATEN ISLAND,MULTIPLE DWELLING A,GARDEN COMPLEX,,2148.0,18.0,,
10314,3225,VICTORY,BLVD,,,,64,STATEN ISLAND,MULTIPLE DWELLING A,GARDEN COMPLEX,,2148.0,18.0,,
10314,3226,VICTORY,BLVD,,,,64,STATEN ISLAND,MULTIPLE DWELLING A,GARDEN COMPLEX,,2148.0,18.0,,
10314,3228,VICTORY,BLVD,,,,64,STATEN ISLAND,MULTIPLE DWELLING A,GARDEN COMPLEX,,2148.0,18.0,,
10314,3229,VICTORY,BLVD,,,,64,STATEN ISLAND,MULTIPLE DWELLING A,GARDEN COMPLEX,,2148.0,18.0,,
10314,3230,VICTORY,BLVD,,,,64,STATEN ISLAND,MULTIPLE DWELLING A,GARDEN COMPLEX,,2148.0,18.0,,
10314,3231,VICTORY,BLVD,,,,64,STATEN ISLAND,MULTIPLE DWELLING A,GARDEN COMPLEX,,2148.0,18.0,,
10314,3232,VICTORY,BLVD,,,,64,STATEN ISLAND,MULTIPLE DWELLING A,GARDEN COMPLEX,,2148.0,18.0,,
10314,3238,VICTORY,BLVD,,,,64,STATEN ISLAND,MULTIPLE DWELLING A,GARDEN COMPLEX,,2145.0,260.0,,
10314,3239,VICTORY,BLVD,,,,64,STATEN ISLAND,MULTIPLE DWELLING A,GARDEN COMPLEX,,2145.0,260.0,,
10314,3240,VICTORY,BLVD,,,,64,STATEN ISLAND,MULTIPLE DWELLING A,GARDEN COMPLEX,,2145.0,260.0,,
10314,446,WATCHOGUE,RD,,,,64,STATEN ISLAND,MULTIPLE DWELLING A,GARDEN COMPLEX,,1501.0,1.0,,
10314,448,WATCHOGUE,RD,,,,64,STATEN ISLAND,MULTIPLE DWELLING A,GARDEN COMPLEX,,1501.0,1.0,,
10314,350,WILLOW,RD W,,,,64,STATEN ISLAND,MULTIPLE DWELLING A,GARDEN COMPLEX,,1494.0,50.0,,
10314,351,WILLOW,RD W,,,,64,STATEN ISLAND,MULTIPLE DWELLING A,GARDEN COMPLEX,,1494.0,50.0,,
10314,352,WILLOW,RD W,,,,64,STATEN ISLAND,MULTIPLE DWELLING A,GARDEN COMPLEX,,1494.0,50.0,,
10314,360,WILLOW,RD W,,,,64,STATEN ISLAND,MULTIPLE DWELLING A,GARDEN COMPLEX,,1494.0,50.0,,
10314,361,WILLOW,RD W,,,,64,STATEN ISLAND,MULTIPLE DWELLING A,GARDEN COMPLEX,,1494.0,50.0,,
10314,362,WILLOW,RD W,,,,64,STATEN ISLAND,MULTIPLE DWELLING A,GARDEN COMPLEX,,1494.0,50.0,,
10314,370,WILLOW,RD W,,,,64,STATEN ISLAND,MULTIPLE DWELLING A,GARDEN COMPLEX,,1494.0,50.0,,
10314,371,WILLOW,RD W,,,,64,STATEN ISLAND,MULTIPLE DWELLING A,GARDEN COMPLEX,,1494.0,50.0,,
10314,372,WILLOW,RD W,,,,64,STATEN ISLAND,MULTIPLE DWELLING A,GARDEN COMPLEX,,1494.0,50.0,,
10314,380,WILLOW,RD W,,,,64,STATEN ISLAND,MULTIPLE DWELLING A,GARDEN COMPLEX,,1494.0,50.0,,
10314,381,WILLOW,RD W,,,,64,STATEN ISLAND,MULTIPLE DWELLING A,GARDEN COMPLEX,,1494.0,50.0,,
10314,382,WILLOW,RD W,,,,64,STATEN ISLAND,MULTIPLE DWELLING A,GARDEN COMPLEX,,1494.0,50.0,,
10314,383,WILLOW,RD W,,,,64,STATEN ISLAND,MULTIPLE DWELLING A,GARDEN COMPLEX,,1494.0,50.0,,
10314,384,WILLOW,RD W,,,,64,STATEN ISLAND,MULTIPLE DWELLING A,GARDEN COMPLEX,,1494.0,50.0,,
10314,1000,WILLOWBROOK,RD,,,,64,STATEN ISLAND,MULTIPLE DWELLING A,,,1987.0,87.0,,
10314,1001,WILLOWBROOK,RD,,,,64,STATEN ISLAND,MULTIPLE DWELLING A,,,1987.0,87.0,,
10314,1002,WILLOWBROOK,RD,,,,64,STATEN ISLAND,MULTIPLE DWELLING A,,,1987.0,87.0,,
10314,1003,WILLOWBROOK,RD,,,,64,STATEN ISLAND,MULTIPLE DWELLING A,,,1987.0,87.0,,
10314,1004,WILLOWBROOK,RD,,,,64,STATEN ISLAND,MULTIPLE DWELLING A,,,1987.0,87.0,,
10314,1005,WILLOWBROOK,RD,,,,64,STATEN ISLAND,MULTIPLE DWELLING A,,,1987.0,87.0,,
10314,1006,WILLOWBROOK,RD,,,,64,STATEN ISLAND,MULTIPLE DWELLING A,,,1987.0,87.0,,
10314,1007,WILLOWBROOK,RD,,,,64,STATEN ISLAND,MULTIPLE DWELLING A,,,1987.0,87.0,,
10314,1008,WILLOWBROOK,RD,,,,64,STATEN ISLAND,MULTIPLE DWELLING A,,,1987.0,87.0,,
10314,1009,WILLOWBROOK,RD,,,,64,STATEN ISLAND,MULTIPLE DWELLING A,,,1987.0,87.0,,
10314,1010,WILLOWBROOK,RD,,,,64,STATEN ISLAND,MULTIPLE DWELLING A,,,1987.0,87.0,,
10314,1011,WILLOWBROOK,RD,,,,64,STATEN ISLAND,MULTIPLE DWELLING A,,,1987.0,87.0,,
10314,1012,WILLOWBROOK,RD,,,,64,STATEN ISLAND,MULTIPLE DWELLING A,,,1987.0,87.0,,
10314,1013,WILLOWBROOK,RD,,,,64,STATEN ISLAND,MULTIPLE DWELLING A,,,1987.0,87.0,,
10314,1014,WILLOWBROOK,RD,,,,64,STATEN ISLAND,MULTIPLE DWELLING A,,,1987.0,87.0,,
10314,1015,WILLOWBROOK,RD,,,,64,STATEN ISLAND,MULTIPLE DWELLING A,,,1987.0,87.0,,
10314,1016,WILLOWBROOK,RD,,,,64,STATEN ISLAND,MULTIPLE DWELLING A,,,1987.0,87.0,,
10314,1017,WILLOWBROOK,RD,,,,64,STATEN ISLAND,MULTIPLE DWELLING A,,,1987.0,87.0,,
10314,1018,WILLOWBROOK,RD,,,,64,STATEN ISLAND,MULTIPLE DWELLING A,,,1987.0,87.0,,
10314,1019,WILLOWBROOK,RD,,,,64,STATEN ISLAND,MULTIPLE DWELLING A,,,1987.0,87.0,,
10314,1020,WILLOWBROOK,RD,,,,64,STATEN ISLAND,MULTIPLE DWELLING A,,,1987.0,87.0,,
